,accuracy,formatted_address,google_place_id,input_string,latitude,longitude,number_of_results,postcode,status,type
0,,,,"#101T, 15277-100 Avenue,Calgary,AB,Canada,T2W3N2",,,0,,INVALID_REQUEST,
1,,,,"#300 - 800 15TH STREET EAST,Prince Albert,SK,Canada,S6V8E3",,,0,,INVALID_REQUEST,
2,RANGE_INTERPOLATED,"1 Bass Pro Mills Dr, Concord, ON L4K 5W4, Canada",EjAxIEJhc3MgUHJvIE1pbGxzIERyLCBDb25jb3JkLCBPTiBMNEsgNVc0LCBDYW5hZGEiGhIYChQKEglnjjipFS8riBFWy6Z2bFR2fBAB,"1 Bass Pro Mills Dr,Vaughan,ON,Canada,L4K5W4",43.8231966,-79.533821,1,L4K 5W4,OK,street_address
3,ROOFTOP,"1 Boulevard des Promenades, Saint-Bruno-de-Montarville, QC J3V 5K1, Canada",ChIJed3UF5gGyUwR1TFGqELPAzw,"1 Boulevard des Promenades,St-Bruno,QC,Canada,J3V5J5",45.5053569,-73.3771284,1,J3V 5K1,OK,street_address
4,ROOFTOP,"1 Dundas St W #2500, Toronto, ON M5G 1Z3, Canada",ChIJqQGIFss0K4gR6ZNlpMzp0P4,"1 Dundas St West, Unit B218C,Toronto,ON,Canada,M5B2H1",43.655404,-79.381929,1,M5G 1Z3,OK,"establishment,point_of_interest,travel_agency"
5,ROOFTOP,"1 Eglinton Square, Scarborough, ON M1L 2K1, Canada",ChIJWfxJutzN1IkRiRlKfsNLU4I,"1 Eglinton Square ,Toronto,ON,Canada,M1L2K1",43.7228421,-79.300604,1,M1L 2K1,OK,premise
6,ROOFTOP,"1 Mt Bernard Ave, Corner Brook, NL A2H 6Y5, Canada",ChIJay0ohPuxe0sRmzz6HHxuV5I,"1 Mount Bernard Avenue,Corner Brook,NL,Canada,A2H6Y5",48.9506992,-57.95124740000001,1,A2H 6Y5,OK,street_address
7,ROOFTOP,"1 Outlet Collection Way, Calmar, AB T0C 0V0, Canada",ChIJH862cdL5n1MRXt470geIJCc,"1 Outlet Collection Way,Edmonton,AB,Canada,T9E 1J5",53.3022267,-113.5534179,1,T0C 0V0,OK,premise
8,RANGE_INTERPOLATED,"1 Pine Dr, Parry Sound, ON P2A 2L7, Canada",EioxIFBpbmUgRHIsIFBhcnJ5IFNvdW5kLCBPTiBQMkEgMkw3LCBDYW5hZGEiGhIYChQKEgn_aANQeLArTRHx6LuRjDhe6xAB,"1 Pine Drive,Parry Sound,ON,Canada,P2A3C3",45.3450283,-80.01073679999999,1,P2A 2L7,OK,street_address
9,ROOFTOP,"1 Promenade Cir, Thornhill, ON L4J 4P8, Canada",ChIJTRr7QjcsK4gRV050b6_nRGM,"1 Promenade Circle,Thornhill,ON,Canada,L4J4P8",43.8064592,-79.45245709999999,1,L4J 4P8,OK,premise
10,ROOFTOP,"1 Rue Dufferin, Salaberry-de-Valleyfield, QC J6S 1X9, Canada",ChIJB108kzpOyUwRMvfGXhw1L1c,"1 rue Dufferin,Salaberry-de-Valleyfield,QC,Canada,J6S1X9",45.261197,-74.13219219999999,1,J6S 1X9,OK,premise
11,ROOFTOP,"1 Springs Dr, Swift Current, SK S9H 3X6, Canada",ChIJv4EVTSHeEFMR0jix61bKFYQ,"1 Spring dr,Swift Current,SK,Canada,S9H3X6",50.30717749999999,-107.780573,1,S9H 3X6,OK,premise
12,ROOFTOP,"1 Springs Dr, Swift Current, SK S9H 3X6, Canada",ChIJv4EVTSHeEFMR0jix61bKFYQ,"1 Springs Drive ,Swift Current ,SK,Canada,S9H3X6",50.30717749999999,-107.780573,1,S9H 3X6,OK,premise
13,ROOFTOP,"1 Water St E, Cornwall, ON K6H 6M2, Canada",ChIJr517W00XzEwR55ycDb4_gUs,"1 Water Street E,Cornwall,ON,Canada,K6H6M2",45.016277,-74.725548,1,K6H 6M2,OK,premise
14,ROOFTOP,"1 Yorkdale Rd, North York, ON M6A 3A1, Canada",ChIJq6MYgjMyK4gRr78EJUSIqEA,"1 Yorkdale Road,Toronto,ON,Canada,M6A2T9",43.7246888,-79.45389039999999,1,M6A 3A1,OK,street_address
15,RANGE_INTERPOLATED,"10 Boulevard Saint Benoît E, Amqui, QC G5J 2C7, Canada",EjcxMCBCb3VsZXZhcmQgU2FpbnQgQmVub8OudCBFLCBBbXF1aSwgUUMgRzVKIDJDNywgQ2FuYWRhIhoSGAoUChIJXSvt_rT_lkwRmZ5y4niwHhgQCg,"10 boul. St-Benoit Est,Amqui,QC,Canada,G5J2C6",48.4648335,-67.4256537,1,G5J 2C7,OK,street_address
16,ROOFTOP,"10 Old Stock Yards Rd, Toronto, ON M6N 5G8, Canada",ChIJOXSEYaA2K4gRt8vtxi7Eop0,"10 OLD STOCK YARDS ROAD,Toronto,ON,Canada,M6N5G8",43.6692799,-79.47153109999999,1,M6N 5G8,OK,premise
17,ROOFTOP,"10 West Pearce St, Richmond Hill, ON L4B 1H6, Canada",ChIJ_yAtijUrK4gRYFT0CIWRh-Y,"10 West Pearce Street,Richmond Hill,ON,Canada,L4B1B6",43.8486123,-79.3846312,1,L4B 1H6,OK,street_address
18,ROOFTOP,"100 Anderson Rd SE, Calgary, AB T2J 3V1, Canada",ChIJkyACfMt2cVMRsz5_xyvY5RM,"100 Anderson Rd SE,Calgary,AB,Canada,T2J3V1",50.9525539,-114.0662572,1,T2J 3V1,OK,premise
19,RANGE_INTERPOLATED,"100 Bayshore Dr, Nepean, ON K2B 8C1, Canada",EisxMDAgQmF5c2hvcmUgRHIsIE5lcGVhbiwgT04gSzJCIDhDMSwgQ2FuYWRhIhoSGAoUChIJlwFyRMMAzkwRskMe9yBtqeIQZA,"100 Bayshore Dr,Nepean,ON,Canada,K2B8C1",45.3490049,-75.8049304,1,K2B 8C1,OK,street_address
20,ROOFTOP,"100 Billy Bishop Way, North York, ON M3K 2C8, Canada",ChIJldRrijAyK4gRkFZEqG5KGps,"100 Billy Bishop Way,North York,ON,Canada,M3K2C8",43.7310319,-79.4559251,1,M3K 2C8,OK,street_address
21,ROOFTOP,"100 Biscayne Crescent, Brampton, ON L6W 4S1, Canada",ChIJ073Xo0Y-K4gRariC0_H6eqo,"100 Biscayne Cresent,Brampton,ON,Canada,L6W4S1",43.6834157,-79.7122661,1,L6W 4S1,OK,premise
22,ROOFTOP,"100 Boulevard Brien, Repentigny, QC J6A 5N4, Canada",ChIJz4Kh6NnlyEwRV285VPecl4g,"100 boul. Brien,Repentigny,QC,Canada,J6A5N4",45.742263,-73.4586568,1,J6A 5N4,OK,premise
23,ROOFTOP,"100 Boulevard Brien, Repentigny, QC J6A 5N4, Canada",ChIJz4Kh6NnlyEwRV285VPecl4g,"100 Boulevard Brien,Repentigny,QC,Canada,J6A5N4",45.742263,-73.4586568,1,J6A 5N4,OK,premise
24,ROOFTOP,"Square One, 100 City Centre Dr, Mississauga, ON L5B 2C9, Canada",ChIJ7zD5yy5HK4gRQGFno-dq-9g,"100 City Center Dr,Mississauga,ON,Canada,L5B2C9",43.5930784,-79.64249110000002,1,L5B 2C9,OK,premise
25,ROOFTOP,"100 Great Lakes Dr, Brampton, ON L6R 2K7, Canada",ChIJ3WRF2GoWK4gRxcUHrEtB9eg,"100 Great Lakes Dr.,Brampton,ON,Canada,L6R2K7",43.729361,-79.76324199999999,1,L6R 2K7,OK,street_address
26,ROOFTOP,"100 King St W, Chatham, ON N7M 6A9, Canada",ChIJyUynS1j4L4gR2fj8axPwpgU,"100 King Street West,Chatham,ON,Canada,N7M6A9",42.4043015,-82.1838543,1,N7M 6A9,OK,premise
27,ROOFTOP,"100 Legend Ct, Ancaster, ON L9K 1J3, Canada",ChIJQcrBFRyFLIgRZgMtDPNk82I,"100 LEGEND COURT,Ancaster,ON,Canada,L9K 1J3",43.2296905,-79.9484741,1,L9K 1J3,OK,premise
28,ROOFTOP,"100 Rue du Terminus O, Rouyn-Noranda, QC J9X 6H7, Canada",ChIJ60bi75ozIU0RZG1ikmmXQNA,"100 rue du Terminus Ouest,Rouyn-Noranda,QC,Canada,J9X6H7",48.2424709,-79.0250247,1,J9X 6H7,OK,premise
29,ROOFTOP,"100 Rue du Terminus O, Rouyn-Noranda, QC J9X 6H7, Canada",ChIJ60bi75ozIU0RZG1ikmmXQNA,"100, rue du Terminus O,Rouyn-Noranda,QC,Canada,J9X6H7",48.2424709,-79.0250247,1,J9X 6H7,OK,premise
30,ROOFTOP,"1000 Fort William Rd, Thunder Bay, ON P7B 6B9, Canada",ChIJRflVtfshWU0RnasMtgX-_-U,"1000 FORT WILLIAM RD,Thunder Bay,ON,Canada,P7B 6B9",48.40226920000001,-89.2440292,1,P7B 6B9,OK,premise
31,ROOFTOP,"1000 Gerrard St E, Toronto, ON M4M 3G6, Canada",ChIJS7eaLXnL1IkRiPa3tLbuXLE,"1000 Gerrard St East,Toronto,ON,Canada,M4M3G6",43.669144,-79.3391627,1,M4M 3G6,OK,street_address
32,RANGE_INTERPOLATED,"1000 Parkedale Ave, Brockville, ON K6V, Canada",EioxMDAwIFBhcmtlZGFsZSBBdmUsIEJyb2NrdmlsbGUsIE9OLCBDYW5hZGEiGxIZChQKEgmJ6JxTMQ_NTBE3ajLysUcEUhDoBw,"1000 Parkedale Ave,Brockville,ON,Canada,K6V3G9",44.6169587,-75.6813019,1,K6V,OK,street_address
33,ROOFTOP,"1001 Boulevard de Montarville, Boucherville, QC J4B 6P5, Canada",ChIJn9NmecgCyUwROvJfx5rd1p0,"1001 Boulevard De Montarville,Boucherville,QC,Canada,J4B6P5",45.5906184,-73.4332879,1,J4B 6P5,OK,street_address
34,ROOFTOP,"10020 102 Ave, Edmonton, AB T5J 4B7, Canada",ChIJy8z-YU8ioFMRl60IiqKzAlc,"10020 102 Avenue NW,Edmonton,AB,Canada,T5J2Z2",53.54349,-113.4917182,1,T5J 4B7,OK,street_address
35,ROOFTOP,"1005 Boulevard Laure, Sept-Îles, QC G4R 4S6, Canada",ChIJ63-cW9HfkUwRaktNCYrjEYM,"1005 boul. Laure,Sept-Iles,QC,Canada,G4R4S6",50.22633099999999,-66.39419149999999,1,G4R 4S6,OK,premise
36,RANGE_INTERPOLATED,"1005 Ottawa St N, Kitchener, ON N2A, Canada",EicxMDA1IE90dGF3YSBTdCBOLCBLaXRjaGVuZXIsIE9OLCBDYW5hZGEiGxIZChQKEgmBYB9QSIsriBG-yXzSda2POxDtBw,"1005 OTTAWA ST N,Kitchener,ON,Canada,N2A 1H2",43.4494707,-80.44553429999999,1,N2A,OK,street_address
37,ROOFTOP,"101 Boulevard Cardinal Léger, Pincourt, QC J7V 3Y3, Canada",ChIJU9H9HQBIyUwRSBDCZry7Y6Y,"101 boul. Cardinal-Leger,Pincourt,QC,Canada,J7V9T3",45.3847432,-73.99526399999999,1,J7V 3Y3,OK,premise
38,ROOFTOP,"101 Osler Dr, Dundas, ON L9H 4H6, Canada",ChIJHVvDOJaELIgR_nbRYl6sCNI,"101 Osler Dr,Dundas,ON,Canada,L9H4H4",43.2589644,-79.9434083,1,L9H 4H6,OK,street_address
39,ROOFTOP,"1015 Centennial Dr, Kingston, ON K7P 3B7, Canada",ChIJ8RMjJUis0kwRwxZmo9ExAOo,"1015 Centennial Dr,Kingston,ON,Canada,K7P3B7",44.26018,-76.56039249999999,1,K7P 3B7,OK,premise
40,ROOFTOP,"1015 Rue du Marché Central, Montréal, QC H4N 3J8, Canada",ChIJVbtuLfIYyUwRRq6VQszd5jg,"1015 Rue Du Marche Central,Montreal,QC,Canada,H4N3J8",45.5364736,-73.66021289999999,1,H4N 3J8,OK,premise
41,ROOFTOP,"10153 King George Blvd, Surrey, BC V3T 2W1, Canada",ChIJXTZJetTZhVQR9vUeCKl4eFg,"10153 King George Blvd,Surrey,BC,Canada,V3T2W1",49.1864648,-122.848401,1,V3T 2W1,OK,street_address
42,ROOFTOP,"102 Main St W, Listowel, ON N4W 1A2, Canada",ChIJQyB-OntdKYgRlPsVWFUAc0Y,"102 Main St West,Listowel,ON,Canada,N4W1A1",43.73131799999999,-80.9532349,1,N4W 1A2,OK,premise
43,ROOFTOP,"1029 Brodie Dr, Orillia, ON L3V 6H4, Canada",ChIJgW2b0zGvKk0RzCF4RCDb8Tw,"1029 Brodie Drive,Orillia,ON,Canada,L3V6H4",44.6320074,-79.4348181,1,L3V 6H4,OK,premise
44,ROOFTOP,"10304 109 St NW, Edmonton, AB T5J 1M3, Canada",ChIJw0OsfjYioFMRCtWtQTEi7ks,"10304 - 109th Street,Edmonton,AB,Canada,T5J1M3",53.5450015,-113.5097469,1,T5J 1M3,OK,premise
45,ROOFTOP,"10355 152 St, Surrey, BC V3R 7Z1, Canada",ChIJyaQNiGzXhVQRkv6_wHKFApQ,"10355 152nd St.,Surrey,BC,Canada,V3R1B9",49.18692249999999,-122.8044291,1,V3R 7Z1,OK,premise
46,ROOFTOP,"105 Rue Robert Bernard, Drummondville, QC J2C 0P6, Canada",ChIJ3zdf0zcSyEwRIpE1lbHAmhM,"105 Rue Robert-Bernard,Drummondville,QC,Canada,J2C0P6",45.9079635,-72.5152822,1,J2C 0P6,OK,premise
47,ROOFTOP,"10539 Boulevard Pie-IX, Montréal-Nord, QC H1H 4A3, Canada",ChIJKYpYcBMfyUwROQc48rg7otQ,"10539 Boulevard Pie-Ix,Montreal,QC,Canada,H1H4A3",45.5887217,-73.6331685,1,H1H 4A3,OK,street_address
48,ROOFTOP,"1350 Spring St NW #1, Atlanta, GA 30309, USA",ChIJz4_nc1oE9YgRxihstPqFSoM,,33.791638,-84.389488,1,30309,OK,"bar,establishment,food,point_of_interest,restaurant"
49,RANGE_INTERPOLATED,"1063 Talbot St, St Thomas, ON N5P 1G3, Canada",Ei0xMDYzIFRhbGJvdCBTdCwgU3QgVGhvbWFzLCBPTiBONVAgMUczLCBDYW5hZGEiGxIZChQKEglXMr_kIF4uiBGeJqXH5woX0hCnCA,"1063 TALBOT ST,St Thomas,ON,Canada,N5P 1G4",42.7794608,-81.1671686,1,N5P 1G3,OK,street_address
50,ROOFTOP,"1067 Ontario St, Stratford, ON N5A 6W6, Canada",ChIJddD2nMytLogRUiWQDq7jrko,"1067 ONTARIO ST,Stratford,ON,Canada,N5A 6W6",43.3699529,-80.9455275,1,N5A 6W6,OK,street_address
51,RANGE_INTERPOLATED,"1070 Major Mackenzie Dr E, Richmond Hill, ON L4S, Canada",EjQxMDcwIE1ham9yIE1hY2tlbnppZSBEciBFLCBSaWNobW9uZCBIaWxsLCBPTiwgQ2FuYWRhIhsSGQoUChIJayuoZOYqK4gRee2PEn9BnfAQrgg,"1070 Major MacKenzie Dr E,Richmond Hill,ON,Canada,L4S1P3",43.8773402,-79.4084342,1,L4S,OK,street_address
52,ROOFTOP,"1075 Boulevard Firestone, Joliette, QC J6E 6X6, Canada",ChIJFVG4kZi9yEwRArlUbIzFd_4,"1075 boul. Firestone,Joliette,QC,Canada,J6E 6X6",46.0327605,-73.4246143,1,J6E 6X6,OK,street_address
53,ROOFTOP,"1075 Boulevard Firestone, Joliette, QC J6E 6X6, Canada",ChIJFVG4kZi9yEwRArlUbIzFd_4,"1075 Boulevard Firestone,Joliette,QC,Canada,J6E6X6",46.0327605,-73.4246143,1,J6E 6X6,OK,street_address
54,ROOFTOP,"1075 St Albert Trail, St. Albert, AB T8N 7H5, Canada",ChIJ6-wjDVovoFMRTO0-i52rIv8,"1075 St Albert Trail,St. Albert,AB,Canada,T8N4K6",53.66940700000001,-113.6370971,1,T8N 7H5,OK,premise
55,ROOFTOP,"1076 Hoover Park Dr, Whitchurch-Stouffville, ON L4A 0K2, Canada",ChIJnRw8fUMp1YkRZSdRONTN2Ss,"1076 Hoover Park Drive,Stouffville,ON,Canada,L4A0K2",43.95608989999999,-79.2767389,1,L4A 0K2,OK,premise
56,ROOFTOP,"1080 Wellington Rd, London, ON N6E 1M2, Canada",ChIJc8nQtpfzLogRGSagoaOIOYc,"1080 WELLINGTON ROAD,London,ON,Canada,N6E1M2",42.9331989,-81.2212004,1,N6E 1M2,OK,premise
57,ROOFTOP,"109 Princess Elizabeth Ave NW, Edmonton, AB T5G 3A6, Canada",ChIJS09ddrAjoFMR1WJlRNBlMLE,"109 Princess Elizabeth Avenue NW,Edmonton,AB,Canada,T5G3A6",53.56229070000001,-113.5056191,1,T5G 3A6,OK,street_address
58,ROOFTOP,"1096 Princess St, Kingston, ON K7L 1H2, Canada",ChIJocFiFJur0kwRC9LE3LdqTcg,"1096 Princess St,Kingston,ON,Canada,K7L1H2",44.2426475,-76.5159415,1,K7L 1H2,OK,street_address
59,ROOFTOP,"1099 Marcus Dr, Sudbury, ON P3B 4K6, Canada",ChIJ2dKmtnwAL00Rm3H7T6iqjlo,"1099 MARCUS DRIVE,Sudbury,ON,Canada,P3B4K6",46.5001031,-80.94778319999999,1,P3B 4K6,OK,street_address
60,ROOFTOP,"11 Boulevard Sainte Anne O, Sainte-Anne-des-Monts, QC G4V 1P5, Canada",ChIJ9WUGD1fEkEwR3UyltP2iJN8,"11 Boul Ste-Anne O,Sainte-Ann-Des-Monts,QC,Canada,G4V1P5",49.1262233,-66.4860885,1,G4V 1P5,OK,premise
61,ROOFTOP,"11 Washmill Lake Dr, Halifax, NS B3S 0C4, Canada",ChIJ-7JIajcgWksR4tbK88PS9JY,"11 WASHMILL LAKE DRIVE,Halifax,NS,Canada,B3S0A2",44.6468352,-63.67170549999999,1,B3S 0C4,OK,subpremise
62,ROOFTOP,"110 Place d'Orléans Dr, Orléans, ON K1C 2L9, Canada",ChIJXWm1BH8RzkwROTUFmEMqnPs,"110 Place d'Orléans Dr, Unit 370,Orléans, ON,QC,Canada,K1C2L9",45.4778426,-75.5159583,2,K1C 2L9,OK,"establishment,point_of_interest,shopping_mall"
63,ROOFTOP,"1100 Boulevard Maloney O, Gatineau, QC J8T 6G3, Canada",ChIJN8VI0EAbzkwR5kLydhLreYc,"1100 Boul. Maloney O,Gatineau,QC,Canada,J8T 6G3",45.4756531,-75.6972849,1,J8T 6G3,OK,premise
64,ROOFTOP,"1100 Boulevard Guillaume-Couture, Saint-Romuald, QC G6W 5M6, Canada",ChIJhefvadaTuEwRrfOLXD7-XEQ,"1100 Boulevard Guillaume-Couture,Saint-Romuald,QC,Canada,G6W5M6",46.7322981,-71.26754079999999,1,G6W 5M6,OK,premise
65,ROOFTOP,"1100 Pembroke St E, Pembroke, ON K8A 6Y7, Canada",ChIJf0lZD4A30UwRDN3s6SJ2S0s,"1100 Pembroke St E,Pembroke,ON,Canada,K8A6Y7",45.8209004,-77.08445870000001,1,K8A 6Y7,OK,premise
66,RANGE_INTERPOLATED,"1101 Lansdowne Street West, Peterborough, ON K9J 5X9, Canada",EjwxMTAxIExhbnNkb3duZSBTdHJlZXQgV2VzdCwgUGV0ZXJib3JvdWdoLCBPTiBLOUogNVg5LCBDYW5hZGEiGxIZChQKEgmRyXdrpY3ViREFuJKZjBs2nhDNCA,"1101 Lansdowne St W,Peterborough,ON,Canada,K9J7M2",44.2804194,-78.3475733,2,K9J 5X9,OK,street_address
67,ROOFTOP,"1105 Wellington Rd, London, ON N6E 1V4, Canada",ChIJC9UYGJTzLogRx2V8_cAos4Y,"1105 WELLINGTON RD,London,ON,Canada,N6E 1V4",42.93158649999999,-81.22468870000002,1,N6E 1V4,OK,premise
68,ROOFTOP,"111 Avenue A, New York, NY 10009, USA",ChIJfS6RWp1ZwokRHRCIiP-IApE,"111 Avenue & Groat Road,Edmonton,AB,Canada,T5M3L7",40.7262059,-73.9836212,1,10009,OK,"establishment,food,point_of_interest,restaurant"
69,ROOFTOP,"111 Howland Dr, Huntsville, ON P1H 2P4, Canada",ChIJhTytL2hyKk0RCUBTSpnFLTA,"111 Howland Drive,Huntsville,ON,Canada,P1H2P4",45.34544959999999,-79.22883379999999,1,P1H 2P4,OK,premise
70,ROOFTOP,"1111 Boulevard Jutras E, Victoriaville, QC G6S 1C1, Canada",ChIJvXzIRMIDuEwRGy7eUSqcgTk,"1111 boul Jutras Est,Victoriaville,QC,Canada,G6S1C1",46.059653,-71.9267684,1,G6S 1C1,OK,premise
71,ROOFTOP,"1111 Boulevard Jutras E, Victoriaville, QC G6S 1C1, Canada",ChIJvXzIRMIDuEwRGy7eUSqcgTk,"1111 Boulevard Jutras E,Victoriaville,QC,Canada,G6S1C1",46.059653,-71.9267684,1,G6S 1C1,OK,premise
72,RANGE_INTERPOLATED,"1111 Davis Dr, Newmarket, ON L3Y 8K3, Canada",EiwxMTExIERhdmlzIERyLCBOZXdtYXJrZXQsIE9OIEwzWSA4SzMsIENhbmFkYSIbEhkKFAoSCU9jfgyEzSqIEdSoNmRtDy8QENcI,"1111 Davis Drive,Newmarket,ON,Canada,L3Y2M9",44.0660669,-79.43095509999999,1,L3Y 8K3,OK,street_address
73,ROOFTOP,"1111 Elgin St W, Cobourg, ON K9A 4J7, Canada",ChIJS1oOonjG1YkR368L6RrQKgc,"1111 Elgin St W,Cobourg,ON,Canada,K9A5H7",43.97024769999999,-78.1997536,1,K9A 4J7,OK,street_address
74,ROOFTOP,"1116 Boulevard Vachon N, Sainte-Marie, QC G6E 1N7, Canada",ChIJiacDJltWuEwRqYWlAaG3Xi8,"1116 boul. Vachon Nord,Sainte-Marie-de-Beauce,QC,Canada,G6E1N7",46.4565311,-71.0362538,1,G6E 1N7,OK,premise
75,ROOFTOP,"1120 Grant Ave, Winnipeg, MB R3M 2A6, Canada",ChIJdZvLSEB06lIRD2Gmdx7G-jg,"1120 Grant Ave,Winnipeg,MB,Canada,R3M2A6",49.8566222,-97.1673507,1,R3M 2A6,OK,premise
76,ROOFTOP,"1127 Sumas Way, Abbotsford, BC V2S 8H2, Canada",ChIJW2480OdKhFQRNcEN7dkxypg,"1127 Sumas Way,Abbotsford,BC,Canada,V2S8H2",49.0221477,-122.2669654,1,V2S 8H2,OK,premise
77,APPROXIMATE,"Fredericton, NB E3B 3C1, Canada",ChIJsTbCZ0AipEwRGKDMp-NRPA8,"113 Montee Masson,Fredericton,NB,Canada,E3B3C1",45.9397546,-66.6653199,1,E3B 3C1,OK,postal_code
78,ROOFTOP,"115 Marquis Dr, Saskatoon, SK S7R 1C7, Canada",ChIJzXSG9Bf2BFMRI-LsPpACXAA,"115 Marquis Dr,Saskatoon,SK,Canada,S7R1C7",52.1939978,-106.6760925,1,S7R 1C7,OK,premise
79,ROOFTOP,"1150 Douglas St, Victoria, BC V8W 2C8, Canada",ChIJUY78lJp0j1QRfPP1whkXJmk,"1150 Douglas St,Victoria,BC,Canada,V8W3M9",48.4250195,-123.3656632,1,V8W 2C8,OK,street_address
80,ROOFTOP,"1150 Lakeside Dr, Nelson, BC V1L 6G3, Canada",ChIJySHPDLK2fFMR58Q8avdxNh0,"1150 Lakeside Dr,Nelson,BC,Canada,V1L5Z3",49.4991466,-117.2883842,1,V1L 6G3,OK,street_address
81,ROOFTOP,"1151 10 Ave SW, Salmon Arm, BC V1E 1T2, Canada",ChIJo5mKKAv1flMRfkTtZIqHXc8,"1151 10th Ave SW,Salmon Arm,BC,Canada,V1E1T3",50.6943785,-119.2988747,1,V1E 1T2,OK,premise
82,ROOFTOP,"1151 Dundas St W, Mississauga, ON L5C 1C6, Canada",ChIJwfsuga5GK4gRkAPJ2_1BnTY,"1151 Dundas St W,Mississauga,ON,Canada,L5C1C6",43.5575649,-79.64576339999999,1,L5C 1C6,OK,street_address
83,ROOFTOP,"1154 Chemong Rd, Peterborough, ON K9H 7N1, Canada",ChIJz0xjg3-L1YkRqinCltjXO1o,"1154 Chemong Rd,Peterborough,ON,Canada,K9H7J6",44.3293071,-78.3392442,1,K9H 7N1,OK,street_address
84,ROOFTOP,"11588 Sarcee Trail NW, Calgary, AB T3R 0A1, Canada",ChIJHyEsuoBocVMRwNAKPcuxkw8,"11588 Sarcee Trail Nw,Calgary,AB,Canada,T3R0A1",51.15516359999999,-114.1559604,1,T3R 0A1,OK,street_address
85,ROOFTOP,"1160 Rue de la Concorde, Lévis, QC G6W 0M7, Canada",ChIJGTpXNtGTuEwRZSh1fTHvn_Q,"1160 Rue De La Concorde,Levis,QC,Canada,G6W0M4",46.7313461,-71.2603424,1,G6W 0M7,OK,street_address
86,ROOFTOP,"1161 Rte 776, Grand Manan, NB E5G 4E9, Canada",ChIJo4W8BnLzqEwRF4G_ZbS4PGM,"1161 Route 776,Grand Manan,NB,Canada,E5G4E9",44.6858898,-66.76694549999999,1,E5G 4E9,OK,premise
87,,,,"11666 Steveston Highway, #7000,RICHMOND,BC,Canada,V7A5J3",,,0,,REQUEST_DENIED,
88,ROOFTOP,"11801 100 St #116, Grande Prairie, AB T8V 3Y2, Canada",EjUxMTYsIDExODAxIDEwMCBTdCwgR3JhbmRlIFByYWlyaWUsIEFCIFQ4ViAzWTIsIENhbmFkYSIfGh0KFgoUChIJBb5wmamWkFMRrvAQ70oWOFYSAzExNg,"11801 100 ST UNIT 116,Grande Prairie,AB,Canada,T8V3Y2",55.18794270000001,-118.7920152,1,T8V 3Y2,OK,subpremise
89,ROOFTOP,"11810 Sarcee Trail NW, Calgary, AB T3R 0A1, Canada",ChIJJX59vX9ocVMRQjEfoIeASes,"11810 SARCEE TRAIL NW,Calgary,AB,Canada,T3R0A1",51.15780729999999,-114.1574738,1,T3R 0A1,OK,subpremise
90,ROOFTOP,"1185 Boulevard Moody, Terrebonne, QC J6W 3Z5, Canada",ChIJfRc712HeyEwRq65STIQyTmk,"1185 Boulevard Moody,Terrebonne,QC,Canada,J6W3K9",45.7043693,-73.6476804,1,J6W 3Z5,OK,premise
91,ROOFTOP,"119 Gale Terrace, Dartmouth, NS B3B 0C4, Canada",ChIJ_wPUcLsmWksRGDIlmYieFCY,"119 Gale Terrace,Dartmouth,NS,Canada,B3B0C4",44.697394,-63.5636374,1,B3B 0C4,OK,subpremise
92,ROOFTOP,"11900 Haney Pl, Maple Ridge, BC V2X 8T1, Canada",ChIJ5Q-6b17ThVQRimiFdkTw8RA,"11900 Haney Pl.,Maple Ridge,BC,Canada,V2X8R9",49.2183485,-122.5984989,1,V2X 8T1,OK,premise
93,ROOFTOP,"1195 Maple Ave, Milton, ON L9T 0A5, Canada",ChIJwWoM0vtuK4gR3gYQCpaKKRM,"1195 MAPLE AVENUE,Milton,ON,Canada,L9T0A5",43.5387685,-79.8684462,1,L9T 0A5,OK,premise
94,ROOFTOP,"1198 Onondaga St, Oromocto, NB E2V 1B8, Canada",ChIJ16CHT7CepkwRUr0mUJB3VmI,"1198 Onondoga St,Oromocto,NB,Canada,E2V 1J4",45.8521392,-66.4742141,1,E2V 1B8,OK,street_address
95,ROOFTOP,"1199 Lynn Valley Rd, North Vancouver, BC V7J 3H1, Canada",ChIJKU09CQtwhlQRB32tjv2riFs,"1199 Lynn Valley Rd,North Vancouver,BC,Canada,V7J3H2",49.3347256,-123.0398386,1,V7J 3H1,OK,premise
96,ROOFTOP,"120 Adelaide St W, Toronto, ON M5H 1P9, Canada",ChIJCT1vnc00K4gRICX0ruVPI0M,"120 Adelaide St W,Toronto,ON,Canada,M5H1T1",43.6499286,-79.3832479,1,M5H 1P9,OK,premise
97,RANGE_INTERPOLATED,"120 Columbus Dr, Carbonear, NL A1Y 1A6, Canada",Ei4xMjAgQ29sdW1idXMgRHIsIENhcmJvbmVhciwgTkwgQTFZIDFBNiwgQ2FuYWRhIhoSGAoUChIJ5XuDXbZRc0sRIASQpRtIP1IQeA,"120 Columbus Drive,Carbonear,NL,Canada,A1Y1B3",47.7307769,-53.2486076,1,A1Y 1A6,OK,street_address
98,ROOFTOP,"1200 37 St SW, Calgary, AB T3C 1S2, Canada",ChIJ0dmLZTpucVMRJ6fp_Kds2yY,"1200 37 Street SW,Calgary,AB,Canada,T3C1S2",51.0413976,-114.1400206,1,T3C 1S2,OK,premise
99,ROOFTOP,"1200 37 St SW, Calgary, AB T3C 1S2, Canada",ChIJ0dmLZTpucVMRJ6fp_Kds2yY,"1200 37th Street SW,Calgary,AB,Canada,T3C1S2",51.0413976,-114.1400206,1,T3C 1S2,OK,premise
100,ROOFTOP,"Galaries Chagnon, 1200 Boulevard Alphonse-Desjardins, Levis, QC G6V 6Y8, Canada",ChIJpw-yvKmVuEwRE3bkrhihKbg,"1200 boul. Alphonse-Desjardins,Levis,QC,Canada,G6V6Y8",46.7964057,-71.1717412,1,G6V 6Y8,OK,premise
101,ROOFTOP,"1200 St Laurent Blvd, Ottawa, ON K1K 3B8, Canada",ChIJpd7jg4YPzkwRUXkSXgzsekk,"1200 St. Laurent  Blvd,Ottawa,ON,Canada,K1K3B8",45.4219466,-75.6387057,1,K1K 3B8,OK,premise
102,ROOFTOP,"121 Rue de l'Église, Edmundston, NB E3V 1V5, Canada",ChIJoSs_9YmpvUwRESG8bjjD55Q,"121 rue de L'Eglise,Edmundston,NB,Canada,E3V1J9",47.3638006,-68.3307792,1,E3V 1V5,OK,street_address
103,ROOFTOP,"122 Boulevard Perron O, New Richmond, QC G0C 2B0, Canada",ChIJETgctDyymUwREncCwCXaZa8,"122 Boul. Perron Ouest,New Richmond,QC,Canada,G0C2B0",48.16218749999999,-65.8577507,1,G0C 2B0,OK,street_address
104,ROOFTOP,"1221 Boulevard Marcotte, Roberval, QC G8H 3G3, Canada",ChIJqTa0sRH5wUwR0ZkAf_q4a28,"1221 boul. Marcotte,Roberval,QC,Canada,G8H2P2",48.5233478,-72.23543830000001,1,G8H 3G3,OK,premise
105,RANGE_INTERPOLATED,"1225 Brant St, Burlington, ON L7P, Canada",EiUxMjI1IEJyYW50IFN0LCBCdXJsaW5ndG9uLCBPTiwgQ2FuYWRhIhsSGQoUChIJs7Z8b_lhK4gRDQSIUG0UhoQQyQk,"1225 Brant St,Burlington,ON,Canada,L7P1X7",43.3435508,-79.8246322,1,L7P,OK,street_address
106,ROOFTOP,"1225 St Mary's Rd, Winnipeg, MB R2M 5E5, Canada",ChIJsVEzIm926lIREz5K2fFTWtY,"1225 St. Marys Road,Winnipeg,MB,Canada,R2M5E5",49.8292939,-97.11400929999999,1,R2M 5E5,OK,premise
107,ROOFTOP,"1225 Wonderland Rd N, London, ON N6G, Canada",ChIJp-eewdDvLogR9nWuzcP_288,"1225 Wonderland Rd N,London,ON,Canada,N6G2V9",43.0047384,-81.3052118,1,N6G,OK,premise
108,ROOFTOP,"1235 Main St N, Moose Jaw, SK S6H 1G3, Canada",ChIJCWvXejTcG1MRU3-7zb0CqBA,"1235 Main St N,Moose Jaw,SK,Canada,S6H6M4",50.4043447,-105.5298077,1,S6H 1G3,OK,premise
109,ROOFTOP,"12450 149 St NW, Edmonton, AB T5V 1G9, Canada",ChIJ2Tb8UFQhoFMR3oUIOkrU--w,"12450 149th NW,Edmonton,AB,Canada,T5V1G9",53.5790106,-113.5799217,1,T5V 1G9,OK,premise
110,ROOFTOP,"1250 S Service Rd, Mississauga, ON L5E 1V4, Canada",ChIJpcclB9tHK4gRFwHHFLGwu_w,"1250 South Service Road,Etobicoke,ON,Canada,L5E 1V4",43.5930256,-79.5689483,1,L5E 1V4,OK,premise
111,ROOFTOP,"12675 Rue Sherbrooke E, Pointe-aux-Trembles, QC H1A 3V9, Canada",ChIJp3iH-CjiyEwRHfVSh7Rcs-Q,"12675 Rue Sherbrooke Est,Montreal,QC,Canada,H1A3W7",45.65457139999999,-73.512715,1,H1A 3V9,OK,street_address
112,ROOFTOP,"1275 Barton St E, Hamilton, ON L8H 2V4, Canada",ChIJN5vkGEiZLIgR49dir3LovJk,"1275 Barton St E,Hamilton,ON,Canada,L8H2V2",43.2507312,-79.8077502,1,L8H 2V4,OK,premise
113,ROOFTOP,"Exchange Tower, 130 King St W, Toronto, ON M5X 1K6, Canada",ChIJ1dz0YdI0K4gRR0dIrp_9y_Q,"130 King St West,Toronto,ON,Canada,M5X1B5",43.648528,-79.38333589999999,1,M5X 1K6,OK,premise
114,ROOFTOP,"130 Live Eight Way, Barrie, ON L4N 6P1, Canada",ChIJlZAZz1u8KogR24_nT8i8jPs,"130 Live Eight Way,Barrie,ON,Canada,L4N6P1",44.34052519999999,-79.6805115,1,L4N 6P1,OK,premise
115,ROOFTOP,"130 Ritson Rd N, Oshawa, ON L1G, Canada",ChIJY4vJIcMc1YkR88ZGdQDXCX0,"130 Ritson Rd N,Oshawa,ON,Canada,L1G0A6",43.9027021,-78.8578811,1,L1G,OK,street_address
116,ROOFTOP,"1300 King St E, Oshawa, ON L1H 8J4, Canada",ChIJDQwXvWoD1YkR3nub2rODHOE,"1300 King St E,Courtice,ON,Canada,L1H8J4",43.9072804,-78.8153399,1,L1H 8J4,OK,street_address
117,ROOFTOP,"Place Bathurst Mall, 1300 St Peter Ave, Bathurst, NB E2A 3A6, Canada",ChIJZ0vDLMWTmEwR3T3LaHDXEgU,"1300 St. Peter Avenue,Bathurst,NB,Canada,E2A3A6",47.6401609,-65.67796489999999,1,E2A 3A6,OK,premise
118,ROOFTOP,"1315 St James St, Winnipeg, MB R3H 0K9, Canada",ChIJU5Ap1aZz6lIRtWlVZuu2yHo,"1315 St. James Street,Winnipeg,MB,Canada,R3H0K9",49.9035638,-97.19858699999999,1,R3H 0K9,OK,premise
119,ROOFTOP,"132 Bennett Dr, Gander, NL A1V 2H2, Canada",ChIJs0RfyOzydksRw1jysnlhKHg,"132 Bennett Drive,Gander,NL,Canada,A1V2H2",48.9513743,-54.6032904,1,A1V 2H2,OK,premise
120,ROOFTOP,"1320 Trans-Canada Hwy, Kamloops, BC V1S 1J2, Canada",ChIJk5jBSXAsflMRgxQnZ3ByP7w,"1320 Trans Canada Highway W,Kamloops,BC,Canada,V1S1J2",50.6545578,-120.3715262,1,V1S 1J2,OK,subpremise
121,ROOFTOP,"133 Church St, Antigonish, NS B2G 2E6, Canada",ChIJw7mlkhdFXEsRvwBX8F_CtpA,"133 Church St.,Antigonish,NS,Canada,B2G2E3",45.617833,-61.98334560000001,1,B2G 2E6,OK,premise
122,ROOFTOP,"1330 S Service Rd, Stoney Creek, ON L8E 5C5, Canada",ChIJFQ6xKHGkLIgRl7UBZuYjHm4,"1330 South Service Rd.,Stoney Creek,ON,Canada,L8E5C5",43.21832930000001,-79.643952,1,L8E 5C5,OK,street_address
123,ROOFTOP,"134 Primrose Dr, Saskatoon, SK S7K 3V5, Canada",ChIJccHzzn32BFMRtgd0Jj_rPKQ,"134 PRIMROSE DR.,Saskatoon,SK,Canada,S7K5S6",52.1688865,-106.6398318,1,S7K 3V5,OK,premise
124,ROOFTOP,"1349 Lasalle Blvd, Sudbury, ON P3A 1Z2, Canada",ChIJiSuNKZwAL00R5l5_aRa7BjQ,"1349 Lasalle Blvd,Sudbury,ON,Canada,P3A1Z2",46.5199747,-80.9462428,1,P3A 1Z2,OK,street_address
125,RANGE_INTERPOLATED,"1350 16th St E, Leith, ON N0H 1V0, Canada",EikxMzUwIDE2dGggU3QgRSwgTGVpdGgsIE9OIE4wSCAxVjAsIENhbmFkYSIbEhkKFAoSCf2_D6cR_CmIEQR-zaIkCwUOEMYK,"1350 16th Street East,Owen Sound,ON,Canada,N4K6N7",44.575147,-80.9129091,1,N0H 1V0,OK,street_address
126,ROOFTOP,"1355 Kingston Rd, Pickering, ON L1V 1B8, Canada",ChIJt3qN0uDe1IkRtGYOsfjJFXI,"1355 Kingston Rd,Pickering,ON,Canada,L1V1B8",43.8361864,-79.08604150000001,1,L1V 1B8,OK,premise
127,RANGE_INTERPOLATED,"137 Countryview Dr, Dartmouth, NS B3B, Canada",EikxMzcgQ291bnRyeXZpZXcgRHIsIERhcnRtb3V0aCwgTlMsIENhbmFkYSIbEhkKFAoSCfM3aAiVJlpLEcg_u8kr6vI9EIkB,"137 Countryview Drive,Dartmouth,NS,Canada,B3B0E7",44.7046419,-63.5648285,1,B3B,OK,street_address
128,GEOMETRIC_CENTER,"137th Ave, Queens, NY, USA",ChIJl1ZV6qVmwokR72jVOxl7cqI,"137th Avenue & 66th Street,Edmonton,AB,Canada,T5C3C8",40.6759825,-73.7534629,1,,OK,route
129,GEOMETRIC_CENTER,"1380 Exmouth St, Sarnia, ON N7S 3X9, Canada",ChIJKav68HCDJYgR5pmz56-j7aI,"1380 Exmouth St,Sarnia,ON,Canada,N7S3X9",42.9850035,-82.3529875,1,N7S 3X9,OK,premise
130,ROOFTOP,"1380 London Rd, Sarnia, ON N7S 3Y1, Canada",ChIJ98C9U3KDJYgRmFe1d2VullY,"1380 London Road,Sarnia,ON,Canada,N7S1P8",42.9824949,-82.3523053,1,N7S 3Y1,OK,street_address
131,ROOFTOP,"1381 Regent St, Fredericton, NB E3C 1A2, Canada",ChIJ_Xlq6TgipEwR3ahap4qL0i4,"1381 Regent Street,Fredericton,NB,Canada,E3C 1A2",45.934473,-66.6641088,1,E3C 1A2,OK,premise
132,ROOFTOP,"1390 Riverside Dr, Timmins, ON P4R 1A5, Canada",ChIJX9GD2IOmPE0Rh3dTtkgAOE8,"1390 Riverside Drive,Timmins,ON,Canada,P4R1A5",48.4731211,-81.37751589999999,1,P4R 1A5,OK,premise
133,ROOFTOP,"140 Granite Dr, Moncton, NB E1H 2G9, Canada",ChIJ3dhdJBq_oEwRlWnRcQh5bRM,"140 Granite Drive,Moncton,NB,Canada,E1G2J7",46.128823,-64.77886509999999,1,E1H 2G9,OK,premise
134,RANGE_INTERPOLATED,"1400 Ottawa St S, Kitchener, ON N2E, Canada",EicxNDAwIE90dGF3YSBTdCBTLCBLaXRjaGVuZXIsIE9OLCBDYW5hZGEiGxIZChQKEgm5AelnvfUriBF_R5Zj5f23ZBD4Cg,"1400 OTTAWA ST S,Kitchener,ON,Canada,N2E4E2",43.4162985,-80.5121036,1,N2E,OK,street_address
135,ROOFTOP,"1401 Boulevard Talbot, Chicoutimi, QC G7H 5N6, Canada",ChIJ7SCG9tkgwEwR0_WxVN5v3yw,"1401 BOUL. TALBOT,Chicoutimi,QC,Canada,G7H4C1",48.4043941,-71.0553013,1,G7H 5N6,OK,premise
136,ROOFTOP,"1403 Central Ave, Prince Albert, SK S6V 7J4, Canada",ChIJoaI29Yh6AVMRoWvRnRu07zs,"1403 CENTRAL AVE,Prince Albert,SK,Canada,S6V7J4",53.20056049999999,-105.7568476,1,S6V 7J4,OK,street_address
137,ROOFTOP,"1411 Warden Ave, Scarborough, ON M1R 2S3, Canada",ChIJ0a17xRvS1IkR2WHjzatfIrk,"1411 Warden Ave,Scarborough,ON,Canada,M1R2S3",43.7594291,-79.2977358,1,M1R 2S3,OK,street_address
138,ROOFTOP,"142 S Albion St, Amherst, NS B4H 4H4, Canada",ChIJfdit2mdJX0sRunjG2jIU3DM,"142 South Albion Street,Amherst,NS,Canada,B4H4H4",45.8120353,-64.19977829999999,1,B4H 4H4,OK,premise
139,ROOFTOP,"1421 Harmony Rd N, Oshawa, ON L1H 7K5, Canada",ChIJ2VWDYk8b1YkRXHkNQsLootA,"1421 Harmony Rd N,Oshawa,ON,Canada,L1H7K5",43.9415163,-78.84967739999999,1,L1H 7K5,OK,premise
140,ROOFTOP,"1450 Main St S, Valley River, MB R0L 2B0, Canada",ChIJCw_BPvDu5VIRbwBbgVUxhzo,"1450 Main ST S,Dauphin,MB,Canada,R7N3H4",51.13624280000001,-100.0612962,1,R0L 2B0,OK,street_address
141,ROOFTOP,"1465 Kingsway, Sudbury, ON P3B 2E7, Canada",ChIJaX2lq30AL00RUQC6R7wztNI,"1465 Kingsway,Sudbury,ON,Canada,P3A 6B3",46.5032587,-80.9462338,1,P3B 2E7,OK,premise
142,ROOFTOP,"147 Laird Dr, East York, ON M4G 4K1, Canada",ChIJvX0Xp97M1IkRCFhvL2sKd9w,"147 Laird Drive,East York,ON,Canada,M4G 4K1",43.7098932,-79.3617131,1,M4G 4K1,OK,street_address
143,ROOFTOP,"1485 Portage Ave, Winnipeg, MB R3G 0W4, Canada",ChIJheT5Z39z6lIRnTQMEWXwDug,"1485 Portage Avenue,Winnipeg,MB,Canada,R3G0W4",49.88159410000001,-97.197071,1,R3G 0W4,OK,premise
144,GEOMETRIC_CENTER,"14879 Yonge St, Hunters Gate, Aurora, ON L4G 1M9, Canada",ChIJU-gO1_7TKogR7_E4WKkdssw,"14879 Yonge St,Aurora,ON,Canada,L4G1M9",43.9910478,-79.4649886,2,L4G 1M9,OK,"establishment,point_of_interest,store"
145,ROOFTOP,"1499 Regent Ave W, Winnipeg, MB R2C 4M4, Canada",ChIJ-Yn0H6Zw6lIRAUZeTVzzFrU,"1499 Regent Avenue,Winnipeg,MB,Canada,R2C4M4",49.8971657,-97.0515241,1,R2C 4M4,OK,street_address
146,GEOMETRIC_CENTER,"15 Westney Rd N, Ajax, ON L1T 1P5, Canada",ChIJ_0Hgjezf1IkRhPy6BUWX4og,"15 Westney rd,Ajax,ON,Canada,L1T1P4",43.858914,-79.0401394,1,L1T 1P5,OK,premise
147,GEOMETRIC_CENTER,"150 Kingston Rd E, Ajax, ON L1Z, Canada",ChIJE67IWgfg1IkRP4gyGfGgx9A,"150 Kingston Rd E,Ajax,ON,Canada,L1Z1E5",43.8645341,-79.01894639999999,1,L1Z,OK,premise
148,ROOFTOP,"1500 Avenue Atwater, Montréal, QC H3Z 1X5, Canada",ChIJoxc_YW0ayUwRTqbVIm96w0E,"1500 Atwater Ave,Montreal,QC,Canada,H3Z1X5",45.4895058,-73.5852657,1,H3Z 1X5,OK,street_address
149,ROOFTOP,"1500 Cranbrook St N, Cranbrook, BC V1C 3S8, Canada",ChIJXZvQTK7YZFMRWnSdkJwUpVg,"1500 Cranbrook St North,Cranbrook,BC,Canada,V1C 3S8",49.5248235,-115.7511836,1,V1C 3S8,OK,street_address
150,RANGE_INTERPOLATED,"1500 Fisher St, North Bay, ON P1B, Canada",EiUxNTAwIEZpc2hlciBTdCwgTm9ydGggQmF5LCBPTiwgQ2FuYWRhIhsSGQoUChIJ5XzzY-uqKU0Rjecn-xJNY0wQ3As,"1500 FISHER ST,North Bay,ON,Canada,P1B2H3",46.3128806,-79.4427789,1,P1B,OK,street_address
151,ROOFTOP,"1500 Avenue McGill College, Montréal, QC H3A 3L2, Canada",ChIJ97wSHUQayUwRegd-nPSl4s0,"1500 McGill Avenue,Montreal,QC,Canada,H3A3J5",45.5023402,-73.5723526,1,H3A 3L2,OK,street_address
152,ROOFTOP,"1500 Riverside Dr, Timmins, ON P4R 1A1, Canada",ChIJUWska4OmPE0RZdMn4ztk1aU,"1500 Riverside Drive,Timmins,ON,Canada,P4R 1A1",48.4732067,-81.3827428,1,P4R 1A1,OK,street_address
153,ROOFTOP,"151 Stone Rd W, Guelph, ON N1G 5L4, Canada",ChIJzZoDYtWEK4gR4na5UpeNT3k,"151 Stone Rd West,Guelph,ON,Canada,N1G5L4",43.5241647,-80.2320618,1,N1G 5L4,OK,premise
154,ROOFTOP,"1530 Albion Rd, Etobicoke, ON M9V 5H4, Canada",ChIJb2PbrfM6K4gR0Wmwdqg8XSo,"1530 Albion Rd ,Etobicoke,ON,Canada,M9V1B4",43.7416936,-79.58437280000001,1,M9V 5H4,OK,street_address
155,ROOFTOP,"1549 Dundas St E, Whitby, ON L1N 5R4, Canada",ChIJ7_OCycUd1YkR2YCHO_zERW4,"1549 Dundas St E,Whitby,ON,Canada,L1N5R4",43.8861199,-78.9131326,1,L1N 5R4,OK,premise
156,ROOFTOP,"1550 Upper James St, Hamilton, ON L9B 2L6, Canada",ChIJH2ZRFZaaLIgRLMY7rvM4fKU,"1550 Upper James Street,Hamilton,ON,Canada,L9B2L6",43.2036167,-79.8955239,1,L9B 2L6,OK,premise
157,ROOFTOP,"1555 Regent Ave W, Winnipeg, MB R2C 4J2, Canada",ChIJe27I2rpw6lIRd6Y-c2TVb2s,"1555 Regent Ave West,Winnipeg,MB,Canada,R2C4C7",49.8986466,-97.0619887,1,R2C 4J2,OK,premise
158,ROOFTOP,"1560 Boulevard le Corbusier, Laval, QC H7S 1Y8, Canada",ChIJ-yeQIMsjyUwRDkMQf9NFpIA,"1560 Boulevard Le Corbusier,Laval,QC,Canada,H7S1Y8",45.56136780000001,-73.7324752,1,H7S 1Y8,OK,street_address
159,ROOFTOP,"1570 18th St, Brandon, MB R7A 5C5, Canada",ChIJNd9HGgma51IR12R39QH6fCU,"1570 - 18 Street,Brandon,MB,Canada,R7A5C5",49.8235175,-99.9645633,1,R7A 5C5,OK,subpremise
160,ROOFTOP,"1570 18th St, Brandon, MB R7A 5C5, Canada",ChIJNd9HGgma51IR12R39QH6fCU,"1570 - 18th Street,Brandon,MB,Canada,R7A5C5",49.8235175,-99.9645633,1,R7A 5C5,OK,subpremise
161,ROOFTOP,"1570 Dundas St E, Mississauga, ON L4X 1L4, Canada",ChIJq9pd4PFHK4gRT9hkfljoCJY,"1570 Dundas St. East,Mississauga,ON,Canada,L4X 1L4",43.6103032,-79.5759717,1,L4X 1L4,OK,premise
162,ROOFTOP,"1571 Sandhurst Cir, Scarborough, ON M1V 1V2, Canada",ChIJfTasdkjR1IkRiyBVv-k1iPk,"1571 Sandhurst Circle,Scarborough,ON,Canada,M1V1V2",43.8092547,-79.2696046,1,M1V 1V2,OK,premise
163,ROOFTOP,"1580 Regent Ave W, Winnipeg, MB R2C 2Y9, Canada",ChIJCZNA_Llw6lIRYHoupYunulo,"1580 Regent Avenue West,Winnipeg,MB,Canada,R2C2Y9",49.896472,-97.0663931,1,R2C 2Y9,OK,premise
164,ROOFTOP,"1595 Bedford Hwy, Bedford, NS B4A 3Y4, Canada",ChIJNRpg_sSJWUsRV9GS2RRZ-Dk,"1595 Bedford Highway,Bedford,NS,Canada,B4A3Y4",44.7320648,-63.65514649999999,1,B4A 3Y4,OK,premise
165,ROOFTOP,"1600 15th Ave, Prince George, BC V2L 3X3, Canada",ChIJbfNYJRyZiFMRWOtkS8N5lOY,"1600 15th Ave.,Prince George,BC,Canada,V2L3X3",53.9103131,-122.7609,1,V2L 3X3,OK,street_address
166,ROOFTOP,"1600 Boulevard le Corbusier, Laval, QC H7S 1Z2, Canada",ChIJkZzqDzUiyUwRQrDR4-Cj3RY,"1600 Boulevard Le Corbusier,Laval,QC,Canada,H7S1Y9",45.5603711,-73.7299956,1,H7S 1Z2,OK,street_address
167,ROOFTOP,"1615 Dundas St E, Whitby, ON L1N 2K9, Canada",ChIJVSDndsYd1YkR0GgloS-WcYA,"1615 Dundas St E,Whitby,ON,Canada,L1N2L1",43.8846935,-78.9109886,1,L1N 2K9,OK,street_address
168,ROOFTOP,"1632 14 Ave NW, Calgary, AB T2N 4Y8, Canada",ChIJXcNQwJZvcVMRVpXJXh-k5ls,"1632 14 Ave NW,Calgary,AB,Canada,T2N1M7",51.0654324,-114.0996443,1,T2N 4Y8,OK,street_address
169,ROOFTOP,"1632 14 Ave NW, Calgary, AB T2N 4Y8, Canada",ChIJXcNQwJZvcVMRVpXJXh-k5ls,"1632 14th Ave NW,Calgary,AB,Canada,T2N1M7",51.0654324,-114.0996443,1,T2N 4Y8,OK,street_address
170,ROOFTOP,"1642 Merivale Rd, Nepean, ON K2G 4A1, Canada",ChIJf_oP1asHzkwR12VA_awZ96E,"1642 Merivale Rd,Nepean,ON,Canada,K2G4A1",45.3455841,-75.732034,1,K2G 4A1,OK,premise
171,ROOFTOP,"1644 Hillside Ave, Victoria, BC V8T 2C5, Canada",ChIJF6UZoopzj1QRUBmT7ir00R0,"1644 Hillside Ave,Victoria,BC,Canada,V8T2C5",48.4461325,-123.3358263,1,V8T 2C5,OK,street_address
172,ROOFTOP,"167 N Queen St, Etobicoke, ON M9C 1A7, Canada",ChIJMxW2DgJIK4gRqf_zCIFVi6Q,"167 NORTH QUEEN STREET,Etobicoke,ON,Canada,M9C1A7",43.617176,-79.55384629999999,1,M9C 1A7,OK,premise
173,ROOFTOP,"1675 Versatile Dr, Kamloops, BC V1S 1W7, Canada",ChIJy8dWhngsflMR8SDYixw3hz8,"1675 Versatile Dr,Kamloops,BC,Canada,V1S1W7",50.65486869999999,-120.3893635,1,V1S 1W7,OK,street_address
174,ROOFTOP,"1680 Richmond St, London, ON N6G 3Y9, Canada",ChIJg8gHTUPuLogR5CNJ8aXbX2M,"1680 RICHMOND ST,London,ON,Canada,N6G 3Y9",43.025599,-81.27838009999999,1,N6G 3Y9,OK,premise
175,ROOFTOP,"17 Worthington Ave, Brampton, ON L7A 2Y7, Canada",ChIJgch7U2IUK4gRNPZ8iIQoTjQ,"17 Worthington Ave.,Brampton,ON,Canada,L7A2Y7",43.681879,-79.8156247,1,L7A 2Y7,OK,street_address
176,ROOFTOP,"1700 Rue Sherbrooke, Magog, QC J1X 2T3, Canada",ChIJW_Odu903tkwRJ8oGtMHRqyc,"1700 Rue Sherbrooke,Magog,QC,Canada,J1X5B4",45.2759378,-72.13067869999999,1,J1X 2T3,OK,street_address
177,ROOFTOP,"1700 Wilson Ave, North York, ON M3L 1A3, Canada",ChIJlTpYsAMxK4gR4DVrDLWFE7U,"1700 Wilson Ave,North York,ON,Canada,M3L1B2",43.7217771,-79.5116913,1,M3L 1A3,OK,street_address
178,ROOFTOP,"1701 Merivale Rd, Nepean, ON K2E 8B8, Canada",ChIJoRKh9KsHzkwRkKtl3ai8-cA,"1701 MERIVALE ROAD,Nepean,ON,Canada,K2G3K2",45.3461431,-75.7288509,1,K2E 8B8,OK,subpremise
179,ROOFTOP,"1711 152 St, Surrey, BC V4A 4N3, Canada",ChIJcRuCH33DhVQRVkFJvx8CyCQ,"1711 152nd St.,South Surrey,BC,Canada,V4A4N3",49.0325846,-122.802211,1,V4A 4N3,OK,street_address
180,ROOFTOP,"175 Green Ln E, East Gwillimbury, ON L9N 0C9, Canada",ChIJbfVmwhrOKogRSYHanpMO-3Y,"175 Green Ln E,East Gwillimbury,ON,Canada,L3Y4V8",44.0728545,-79.482956,1,L9N 0C9,OK,premise
181,ROOFTOP,"175 Rue Principale, Cowansville, QC J2K 3L9, Canada",ChIJaQuwMZDdyUwR-MTC-DBOd2Q,"175 Rue Principale,Cowansville,QC,Canada,J2K3L9",45.2082669,-72.7459224,1,J2K 3L9,OK,premise
182,ROOFTOP,"1751 Victoria St E, Whitby, ON L1N 9W4, Canada",ChIJGyHwPo4d1YkR0KqwQ1TM82E,"1751 Victoria St E,Whitby,ON,Canada,L1N9W4",43.8667382,-78.8988438,1,L1N 9W4,OK,street_address
183,ROOFTOP,"17539 Stony Plain Rd, Edmonton, AB T5S 2S1, Canada",ChIJS3A_m-QgoFMR40qrKdvkSqs,"17539 STONY PLAIN ROAD NW,Edmonton,AB,Canada,T5S2S1",53.5406378,-113.6251519,1,T5S 2S1,OK,subpremise
184,ROOFTOP,"17600 Yonge St, Newmarket, ON L3Y 4Z1, Canada",ChIJo3eInOXRKogRoIPkGjt8Bpo,"17600 Yonge Street,Newmarket,ON,Canada,L3Y4Z1",44.0563483,-79.48530079999999,1,L3Y 4Z1,OK,"establishment,point_of_interest,shopping_mall"
185,ROOFTOP,"1779 Stone Church Rd E, Stoney Creek, ON L8J 0B4, Canada",ChIJm3ycIOmZLIgRVA1CIz66Fqk,"1779 STONE CHURCH ROAD EAST,Hamilton,ON,Canada,L8J0B4",43.1953076,-79.8112889,1,L8J 0B4,OK,premise
186,ROOFTOP,"180 Chemin Madawaska, Grand-Sault, NB E3Y 1A7, Canada",ChIJrweOHOTQvEwR-m8NZpKVYCc,"180 Madawaska Road,Grand Falls,NB,Canada,E3Y1A7",47.0542314,-67.7431539,1,E3Y 1A7,OK,premise
187,ROOFTOP,"1800 Avenue Auguste, Greenfield Park, QC J4V 3R4, Canada",ChIJazce8QsFyUwRqKJ3aC1ivQ4,"1800 AUGUSTE STREET,Greenfield Park,QC,Canada,J4V3R4",45.4845143,-73.4617545,1,J4V 3R4,OK,premise
188,ROOFTOP,"1800 Sheppard Ave E, North York, ON M2J 5A7, Canada",ChIJtRMEcPDS1IkRTPrh6IOnxFY,"1800 Sheppard Avenue East,North York,ON,Canada,M2J 5A7",43.7779901,-79.3440914,1,M2J 5A7,OK,premise
189,ROOFTOP,"18182 Yonge St, East Gwillimbury, ON L9N 0J3, Canada",ChIJm9pMcBnOKogRX6dGeQ4jNUw,"18182 Yonge Street,East Gwillimbury,ON,Canada,L9N0J3",44.07118980000001,-79.48942930000001,1,L9N 0J3,OK,"establishment,point_of_interest,store"
190,ROOFTOP,"1849 Merivale Rd, Nepean, ON K2G 1E3, Canada",ChIJM5hCW7oHzkwR4eFZJYRjr-E,"1849 Merivale Road,Nepean,ON,Canada,K2G1E3",45.3377624,-75.72242609999999,1,K2G 1E3,OK,premise
191,ROOFTOP,"1899 Brock Rd K3, Pickering, ON L1V 4H7, Canada",ChIJtbM2uEvZ1IkR9J6qwMMSYro,"1899 BROCK RD RETAIL,Pickering,ON,Canada,L1V4H7",43.8454797,-79.0725823,2,L1V 4H7,OK,"establishment,liquor_store,point_of_interest,store"
192,RANGE_INTERPOLATED,"19 Cromer Ave, Grand Falls-Windsor, NL A2A 2R6, Canada",EjYxOSBDcm9tZXIgQXZlLCBHcmFuZCBGYWxscy1XaW5kc29yLCBOTCBBMkEgMlI2LCBDYW5hZGEiGhIYChQKEgmfMGl3Qjp3SxHlW9Lorpo6HBAT,"19 Cromer Avenue,Grand Falls-Windsor,NL,Canada,A2A2J9",48.9469898,-55.6540033,1,A2A 2R6,OK,street_address
193,ROOFTOP,"19 Elmira Rd S, Guelph, ON N1H 6J4, Canada",ChIJrcJeFeaPK4gRwo8wUaUuqJ8,"19 Elmira Rd S,Guelph,ON,Canada,N1K0B6",43.5224807,-80.2923479,1,N1H 6J4,OK,street_address
194,ROOFTOP,"1900 Cyrville Rd, Gloucester, ON K1B 3V5, Canada",ChIJrV_oVakPzkwRM0fUW2LSSTA,"1900 Cyrville Road,Gloucester,ON,Canada,K1B1A5",45.4151698,-75.6033867,1,K1B 3V5,OK,premise
195,ROOFTOP,"1900 Eglinton Ave E, Scarborough, ON M1L 2L9, Canada",ChIJPygLUeDN1IkREeYyFBgt1zY,"1900 Eglinton Ave,Scarborough,ON,Canada,M1L2L9",43.728053,-79.2941422,1,M1L 2L9,OK,street_address
196,ROOFTOP,"191 Buchanan Dr, Charlottetown, PE C1E 2E4, Canada",ChIJT5X9aE-tX0sRHYIWv7UZpVY,"191 BUCHANAN DRIVE,Charlottetown,PE,Canada,C1E2E4",46.2646755,-63.15009879999999,1,C1E 2E4,OK,subpremise
197,ROOFTOP,"1910 Pembina Hwy, Winnipeg, MB R3T 4S5, Canada",ChIJD2Fdb8F16lIRGHUI7_M4uB0,"1910 Pembina Highway Unit,Winnipeg,MB,Canada,R3T4S5",49.8223614,-97.1502493,1,R3T 4S5,OK,premise
198,ROOFTOP,"1911 Finch Ave W, North York, ON M3N 2V2, Canada",ChIJTfJ_stIxK4gRmqI7EtBFkcA,"1911 FINCH AVE W,North York,ON,Canada,M3N2V2",43.7567709,-79.5150848,1,M3N 2V2,OK,street_address
199,ROOFTOP,"1925 Dundas St, London, ON N5V 1P7, Canada",ChIJteNL0UjtLogRr50VJ2uxUSw,"1925 Dundas Street,London,ON,Canada,N5V1P7",43.0043326,-81.1724682,1,N5V 1P7,OK,premise
200,ROOFTOP,"1950 Boulevard du Curé-Labelle, Saint-Jérôme, QC J7Y 1S1, Canada",ChIJH8Plae0sz0wR7ePQizjgBqA,"1950 Boulevard Cure-Labelle,St-Jerome,QC,Canada,J7Y1S1",45.79474949999999,-74.01086149999999,1,J7Y 1S1,OK,premise
201,ROOFTOP,"1950 Harvey Ave, Kelowna, BC V1Y 8G6, Canada",ChIJSTFX0rWMfVMRl-oJ2SnIHhE,"1950 Harvey Ave,Kelowna,BC,Canada,V1Y8J8",49.88276330000001,-119.4508327,1,V1Y 8G6,OK,premise
202,ROOFTOP,"19705 Fraser Hwy, Langley, BC V3A 7E9, Canada",ChIJVT52BCzQhVQRpTkZoez24Vg,"19705 Fraser Highway,LANGLEY,BC,Canada,V3A7E9",49.1146628,-122.6741906,1,V3A 7E9,OK,premise
203,RANGE_INTERPOLATED,"19705 Langley Bypass, Langley, BC V3A, Canada",EikxOTcwNSBMYW5nbGV5IEJ5cGFzcywgTGFuZ2xleSwgQkMsIENhbmFkYSIcEhoKFAoSCb8D5xIp0IVUEfSItga7GDbVEPmZAQ,"19705 Langley Bypass,LANGLEY,BC,Canada,V3A7E9",49.1120224,-122.6753246,1,V3A,OK,street_address
204,ROOFTOP,"1980 Ogilvie Rd, Gloucester, ON K1J 9L3, Canada",ChIJK3Vp-MAPzkwRdI5uXkrK0dM,"1980 OGILVIE RD,Gloucester,ON,Canada,K1J9L3",45.4325275,-75.6098258,1,K1J 9L3,OK,premise
205,RANGE_INTERPOLATED,"19800 Lougheed Hwy, Pitt Meadows, BC V3Y 2W1, Canada",EjQxOTgwMCBMb3VnaGVlZCBId3ksIFBpdHQgTWVhZG93cywgQkMgVjNZIDJXMSwgQ2FuYWRhIhwSGgoUChIJtb08dkPUhVQRXnYT_ZuiWgkQ2JoB,"19800 Lougheed Hwy,Pitt Meadows,BC,Canada,V3Y2W1",49.2258228,-122.6762111,1,V3Y 2W1,OK,street_address
206,ROOFTOP,"2 Bloor St E C12, Toronto, ON M4W 1A8, Canada",Ei5DMTIsIDIgQmxvb3IgU3QgRSwgVG9yb250bywgT04gTTRXIDFBOCwgQ2FuYWRhIh8aHQoWChQKEgn1oNpk3DUriBHzDFZ6PnSNxhIDQzEy,"2 Bloor St. East, Unit C12,Toronto,ON,Canada,M4W3G7",43.6710978,-79.386063,1,M4W 1A8,OK,subpremise
207,ROOFTOP,"2 King St W, Hamilton, ON L8P 1A1, Canada",ChIJg9qeSoKbLIgR74YM0HLAuZo,"2 King St W,Hamilton,ON,Canada,L8P1A1",43.25729219999999,-79.8691278,1,L8P 1A1,OK,street_address
208,ROOFTOP,"20 Kingston Rd W, Ajax, ON L1T 4K8, Canada",ChIJWbmK0_rf1IkRwGJnVz6RYIc,"20 Kingston Rd West,Ajax,ON,Canada,L1T4K8",43.8617526,-79.0283072,1,L1T 4K8,OK,premise
209,ROOFTOP,"200 Boulevard D'Anjou, Châteauguay, QC J6K 1C5, Canada",ChIJRaHqfcQUyUwR7n1dspCJLkA,"200 Boulevard D'Anjou,Chateauguay,QC,Canada,J6K1C5",45.3596136,-73.72626869999999,1,J6K 1C5,OK,"establishment,premise"
210,ROOFTOP,"200 Broadway, Tillsonburg, ON N4G 5A8, Canada",ChIJa76nZ_ErLIgR6MtLhIh5Gmg,"200 BROADWAY ST,Tillsonburg,ON,Canada,N4G 5A7",42.8620568,-80.7280248,1,N4G 5A8,OK,premise
211,ROOFTOP,"200 Franklin Blvd, Cambridge, ON N1R 8N8, Canada",ChIJG9zO8pJ3LIgRYh9QMWvyuZs,"200 Franklin Blvd. South,Cambridge,ON,Canada,N1R 5S2",43.3569058,-80.2892944,1,N1R 8N8,OK,premise
212,RANGE_INTERPOLATED,"200 Southridge Dr, Okotoks, AB T1S, Canada",EiYyMDAgU291dGhyaWRnZSBEciwgT2tvdG9rcywgQUIsIENhbmFkYSIbEhkKFAoSCR0qBLuIl3FTEcJpcyxAjIchEMgB,"200 Southridge Dr,Okotoks,AB,Canada,T1S0B2",50.70576,-113.9756956,1,T1S,OK,street_address
213,ROOFTOP,"2002 Park Royal S, West Vancouver, BC V7T 2W4, Canada",ChIJq0fT_iBuhlQRnJflyahf9lI,"2002 Park Royal,West Vancouver,BC,Canada,V7T2W4",49.3260622,-123.1369994,1,V7T 2W4,OK,subpremise
214,ROOFTOP,"201 1 Ave S, Saskatoon, SK S7K 1J9, Canada",ChIJLdsAydf2BFMRD2hr0XPwfzg,"201 1st Ave S,Saskatoon,SK,Canada,S7K1J9",52.1275159,-106.6676245,1,S7K 1J9,OK,premise
215,ROOFTOP,"202 Bell Blvd, Belleville, ON K8P 5L8, Canada",ChIJa_OzYgkl1okRVBRFwqF2taw,"202 Bell Blvd,Belleville,ON,Canada,K8P5L8",44.1887234,-77.4077077,1,K8P 5L8,OK,premise
216,ROOFTOP,"202 Brownlow Ave, Dartmouth, NS B3B 1T5, Canada",ChIJKftaE8YmWksRCvnHn9sHmZA,"202 Brownlow Ave,Dartmouth,NS,Canada,B3B1T5",44.6979761,-63.5817011,1,B3B 1T5,OK,street_address
217,ROOFTOP,"2020 Sherwood Dr, Sherwood Park, AB T8A 3H9, Canada",ChIJw6vGLjQWoFMRdkom4gqRbYg,"2020 Sherwood Drive,Sherwood Park,AB,Canada,T8A3H9",53.531001,-113.2933251,1,T8A 3H9,OK,premise
218,ROOFTOP,"20202 66 Ave, Langley, BC V2Y 1P3, Canada",ChIJixuRctHRhVQRQc7GB8X3cxo,"20202 66TH AVE,LANGLEY,BC,Canada,V2Y1P3",49.1208129,-122.6629778,1,V2Y 1P3,OK,street_address
219,ROOFTOP,"2040 38 Ave NW, Edmonton, AB T6T 0B9, Canada",ChIJn12WEbcZoFMRIoEFeA3u_Fg,"2040 38 Avenue Northwest,Edmonton,AB,Canada,T6T0B9",53.47790879999999,-113.3752385,1,T6T 0B9,OK,premise
220,ROOFTOP,"20499 64 Ave, Langley, BC V2Y 1N5, Canada",ChIJ0xuZytDRhVQRRMYT9OQqsoQ,"20499 64Th Avenue,LANGLEY,BC,Canada,V2Y1N5",49.1201856,-122.6559889,1,V2Y 1N5,OK,street_address
221,RANGE_INTERPOLATED,"206 Main St, Maidstone, SK S0M 1M0, Canada",EioyMDYgTWFpbiBTdCwgTWFpZHN0b25lLCBTSyBTME0gMU0wLCBDYW5hZGEiGxIZChQKEgkH0oWXIvMIUxEOUJJV2qoSVBDOAQ,"206 Main St,Maidstone,SK,Canada,S0M1M0",53.0864923,-109.2905322,1,S0M 1M0,OK,street_address
222,ROOFTOP,"1350 Spring St NW #1, Atlanta, GA 30309, USA",ChIJz4_nc1oE9YgRxihstPqFSoM,,33.791638,-84.389488,1,30309,OK,"bar,establishment,food,point_of_interest,restaurant"
223,ROOFTOP,"21 Micmac Blvd, Dartmouth, NS B3A, Canada",ChIJrV9TzKsmWksRA8NS7LeTxXE,"21 Mic Mac Blvd,Dartmouth,NS,Canada,B3A4K6",44.68634549999999,-63.5594474,1,B3A,OK,premise
224,ROOFTOP,"2100 Park Royal S, West Vancouver, BC V7T 2W4, Canada",ChIJtcVGitJxhlQRBSNlqMQuijg,"2100 Park Royal South,West Vancouver,BC,Canada,V7T1A1",49.3245519,-123.1361311,1,V7T 2W4,OK,street_address
225,ROOFTOP,"2100 Willowbrook Dr, Cranbrook, BC V1C 3S9, Canada",ChIJFS_o_aXYZFMRAM16GgX7arQ,"2100 Willowbrook Dr.,Cranbrook,BC,Canada,V1C7H2",49.52910199999999,-115.7467154,1,V1C 3S9,OK,street_address
226,ROOFTOP,"2102 11th Ave, Regina, SK S4P 3Y6, Canada",ChIJl9PkhUYeHFMRL5ob8V6O4k0,"2102 11th Avenue,Regina,SK,Canada,S4P0J5",50.4506685,-104.6105615,1,S4P 3Y6,OK,street_address
227,ROOFTOP,"2110 Anaquod Road, Regina, SK S4V 1P4, Canada",ChIJKULRNAkgHFMR4xh4unpzxfY,"2110 Anaquod Road,Regina,SK,Canada,S4V 3T7",50.44341739999999,-104.5086097,1,S4V 1P4,OK,street_address
228,ROOFTOP,"2111 Main St, Penticton, BC V2A 6W6, Canada",ChIJqWzPieqJglQRfILOXEHDwUc,"2111 MAIN ST,Penticton,BC,Canada,V2A6W6",49.4735704,-119.5844651,1,V2A 6W6,OK,premise
229,ROOFTOP,"2116 Burnhamthorpe Rd W, Mississauga, ON L5L 5Z5, Canada",ChIJlVnYLttDK4gRjbv8dyyvZL0,"2116 Burnhamthorpe Rd West.,Mississauga,ON,Canada,L5L3A2",43.544135,-79.6806723,1,L5L 5Z5,OK,street_address
230,ROOFTOP,"2121 Carling Ave, Ottawa, ON K2A 1H2, Canada",ChIJg3q-X8oGzkwRmTcMLnJ2sdM,"2121 Carling Avenue,Ottawa,ON,Canada,K2A 1H2",45.3731497,-75.76867940000001,1,K2A 1H2,OK,premise
231,ROOFTOP,"2125 Prince of Wales Dr, Regina, SK S4V 3A4, Canada",ChIJmfouT_gfHFMR9Clu0JrlPww,"2125 PRINCE OF WALES DRIVE,Regina,SK,Canada,S4V3A4",50.4440168,-104.5319774,1,S4V 3A4,OK,subpremise
232,ROOFTOP,"215 Fairway Rd S, Kitchener, ON N2C 1X2, Canada",ChIJ9QK9YtyKK4gRo8mmqqqe_8g,"215 FAIRWAY ROAD SOUTH,Kitchener,ON,Canada,N2C1X2",43.4212823,-80.43708529999999,1,N2C 1X2,OK,premise
233,ROOFTOP,"2151 Boulevard Lapinière, Brossard, QC J4W 2T5, Canada",ChIJ0ytZ8XkFyUwRGQcaMO96R7U,"2151 Boulevard Lapiniere,Brossard,QC,Canada,J4W2T5",45.4715857,-73.4716105,1,J4W 2T5,OK,street_address
234,ROOFTOP,"217 Rue Principale E, Sainte-Agathe-des-Monts, QC J8C, Canada",ChIJG8EhqEwVz0wRuizF92Z4bO8,"217 Rue Principale,Ste-Agathe-Des-Monts,QC,Canada,J8C1K5",46.0451992,-74.27854909999999,1,J8C,OK,premise
235,ROOFTOP,"Toronto Eaton Centre, 218 Yonge St, Toronto, ON M5B 2H1, Canada",ChIJPbG9VTPL1IkRUIwT4Iv_qqw,"218 Yonge St,Toronto,ON,Canada,M5B2H1",43.6538402,-79.38103799999999,1,M5B 2H1,OK,"clothing_store,establishment,point_of_interest,store"
236,ROOFTOP,"2181 Steeles Ave W, North York, ON M3J 3N2, Canada",ChIJp4Z-CnQuK4gR-MKOQQ0jCl0,"2181 Steeles Ave. W,Toronto,ON,Canada,M3J3N3",43.7846737,-79.47662849999999,1,M3J 3N2,OK,premise
237,ROOFTOP,"220 Yonge St, Toronto, ON M5B 2H1, Canada",ChIJvUYHUcs0K4gRN8i7jHsUiYs,"220 YONGE ST,Toronto,ON,Canada,M5B2H1",43.6544382,-79.3806994,1,M5B 2H1,OK,"establishment,point_of_interest,shopping_mall"
238,GEOMETRIC_CENTER,"2201 Broadmoor Blvd, Sherwood Park, AB T8H 2C1, Canada",ChIJiUZjJoA9oFMRZ1zAjQej5-c,"2201 Broadmoor Blvd,Sherwood Park,AB,Canada,T8H0A1",53.546859,-113.3179142,1,T8H 2C1,OK,premise
239,ROOFTOP,"221 Glendale Ave, St. Catharines, ON L2T 2K9, Canada",ChIJk66aJCJQ04kR6rb9ao8xUB8,"221 Glendale Ave,St. Catharines,ON,Canada,L2T2K9",43.1360847,-79.2240958,1,L2T 2K9,OK,street_address
240,ROOFTOP,"2210 Bank St, Ottawa, ON K1V 1J5, Canada",ChIJVRUfmpQIzkwRabex2xZLA5c,"2210 Bank St,Ottawa,ON,Canada,K1V 1J5",45.354899,-75.65475459999999,1,K1V 1J5,OK,premise
241,ROOFTOP,"222 Spadina Ave, Toronto, ON M5T 3B3, Canada",ChIJywlhWcM0K4gR6W9quxyY9hY,"222 Spadina Ave,Toronto,ON,Canada,M5T3B3",43.65103000000001,-79.39820499999999,1,M5T 3B3,OK,street_address
242,ROOFTOP,"1350 Spring St NW #1, Atlanta, GA 30309, USA",ChIJz4_nc1oE9YgRxihstPqFSoM,,33.791638,-84.389488,1,30309,OK,"bar,establishment,food,point_of_interest,restaurant"
243,ROOFTOP,"2223 Victoria Ave E, Regina, SK S4N 6E4, Canada",ChIJB_ct3O4fHFMR9VrT-slzXaY,"2223 Victoria Avenue East,Regina,SK,Canada,S4N6E4",50.444989,-104.5521108,1,S4N 6E4,OK,street_address
244,ROOFTOP,"2225 Erin Mills Pkwy, Mississauga, ON L5K 1T9, Canada",ChIJxRs_IYtDK4gRX7rsQIZ36Qg,"2225 Erin Mills Parkway,Mississauga,ON,Canada,L5K1T8",43.5307487,-79.6533683,1,L5K 1T9,OK,premise
245,ROOFTOP,"22400 Chemin Dumberry, Vaudreuil-Dorion, QC J7V 0M8, Canada",ChIJUZprsk42yUwRhHVH7B0qYz4,"22400 CHEMIN DUMBERRY,Vaudreuil-Dorion,QC,Canada,J7V0M8",45.4147461,-74.0374971,1,J7V 0M8,OK,premise
246,ROOFTOP,"225 High Tech Rd Unit C, Richmond Hill, ON L4B 0A6, Canada",EjtVbml0IEMsIDIyNSBIaWdoIFRlY2ggUmQsIFJpY2htb25kIEhpbGwsIE9OIEw0QiAwQTYsIENhbmFkYSIiGiAKFgoUChIJK979nXArK4gRUl_9A3WW0HUSBlVuaXQgQw,"225 High Tech Road, Unit C,Richmond Hill,ON,Canada,L4B0A6",43.8420503,-79.41807879999999,1,L4B 0A6,OK,subpremise
247,ROOFTOP,"225 Market Drive, Saskatoon, SK S7V 0L2, Canada",ChIJsYrTcFLyBFMRAkZIIOQXWaw,"225 Market Drive,Saskatoon,SK,Canada,S7B0L2",52.0911477,-106.5332014,1,S7V 0L2,OK,street_address
248,ROOFTOP,"2269 Riverside Dr, Ottawa, ON K1H 8K2, Canada",ChIJCyXxvOQFzkwR9W_2bwjcTSE,"2269 Riverside Drive,Ottawa,ON,Canada,K1H7X6",45.3857819,-75.6783398,1,K1H 8K2,OK,street_address
249,ROOFTOP,"22709 Lougheed Hwy, Maple Ridge, BC V2X 2V6, Canada",ChIJZ9w7blzThVQR3AtDspkHbrk,"22709 Lougheed Hwy,Maple Ridge,BC,Canada,V2X2V5",49.2175433,-122.5922924,1,V2X 2V6,OK,street_address
250,RANGE_INTERPOLATED,"2271 Harvey Ave, Kelowna, BC V1Y, Canada",EiQyMjcxIEhhcnZleSBBdmUsIEtlbG93bmEsIEJDLCBDYW5hZGEiGxIZChQKEgnreY7ByIx9UxGjvvCWN6MhzhDfEQ,"2271 Harvey Ave,Kelowna,BC,Canada,V1Y6H2",49.8818055,-119.4378677,1,V1Y,OK,street_address
251,ROOFTOP,"229 Kent St W, Lindsay, ON K9V 2Z1, Canada",ChIJXZFI8F551YkRypaC0jcqsz4,"229 Kent St W,Lindsay,ON,Canada,K9V2Z1",44.353111,-78.74392329999999,1,K9V 2Z1,OK,premise
252,RANGE_INTERPOLATED,"230 Chain Lake Dr, Halifax, NS B3S 1C5, Canada",Ei4yMzAgQ2hhaW4gTGFrZSBEciwgSGFsaWZheCwgTlMgQjNTIDFDNSwgQ2FuYWRhIhsSGQoUChIJTSiBvEEgWksRMINSzQ5dAPMQ5gE,"230 Chain Lake Drive,Halifax,NS,Canada,B3S1C1",44.6551272,-63.6777833,1,B3S 1C5,OK,street_address
253,ROOFTOP,"2300 Yonge St, Toronto, ON M4P 1E4, Canada",ChIJ2ZP-zTwzK4gRv9BK25YoN4s,"2300 Yonge Street,Toronto,ON,Canada,M4P1E4",43.7072095,-79.39954469999999,1,M4P 1E4,OK,"establishment,point_of_interest,shopping_mall"
254,ROOFTOP,"2305 Chemin Rockland, Mont-Royal, QC H3P 3E9, Canada",ChIJFaZhDP8YyUwR2_ONENDXs3k,"2305 Chemin Rockland,Montreal,QC,Canada,H3P3E1",45.5281968,-73.6481237,1,H3P 3E9,OK,premise
255,ROOFTOP,"2305 McPhillips St, Winnipeg, MB R2V 3E1, Canada",ChIJDUcDI-9x6lIR_8rBjhO21lQ,"2305 McPhillips,Winnipeg,MB,Canada,R2V3E1",49.9510117,-97.1450071,1,R2V 3E1,OK,premise
256,ROOFTOP,"2325 Preston Ave S, Saskatoon, SK S7J 2G1, Canada",ChIJtZlj2GrxBFMR_7Zhl3aK_LQ,"2325 Preston Ave,Saskatoon,SK,Canada,S7J2G2",52.101643,-106.6203576,1,S7J 2G1,OK,premise
257,ROOFTOP,"2331 66 St NW, Edmonton, AB T6K 4B4, Canada",ChIJCWFIAz8ZoFMROcB3ppPecS8,"2331 66 Street Northwest,Edmonton,AB,Canada,T6K4B5",53.4557801,-113.4302847,1,T6K 4B4,OK,street_address
258,ROOFTOP,"2339 BC-97, Kelowna, BC V1X 4H9, Canada",ChIJXU5_fcWMfVMRufTIHGAGcYg,"2339  Highway 97 North,Kelowna,BC,Canada,V1X4H9",49.8828177,-119.4305432,1,V1X 4H9,OK,street_address
259,ROOFTOP,"2365 McGillivray Blvd, Winnipeg, MB R3Y 0A1, Canada",ChIJwXn9ZD516lIR7-KQpGQRLfI,"2365 McGilivary Road,Winnipeg,MB,Canada,R3Y0A1",49.8196582,-97.20861579999999,1,R3Y 0A1,OK,premise
260,ROOFTOP,"2370 Ottawa St, Port Coquitlam, BC V3B 7Z1, Canada",ChIJs57_1PHVhVQRg7gSFMkzS1k,"2370 Ottawa Street,Port Coquitlam,BC,Canada,V3B7Z1",49.2559806,-122.7450225,1,V3B 7Z1,OK,street_address
261,ROOFTOP,"2377 Durham Regional Hwy 2, Bowmanville, ON L1C 5A3, Canada",ChIJz-bwlS4B1YkRU2dAs_WeE3U,"2377 Hwy 2,Bowmanville,ON,Canada,L1C5A5",43.9087716,-78.7097577,1,L1C 5A3,OK,street_address
262,ROOFTOP,"2379 Durham Regional Hwy 2, Bowmanville, ON L1C 5A4, Canada",ChIJbbDSti4B1YkRYlxa2McLXBw,"2379 Hwy 2,Bowmanville,ON,Canada,L1C5A4",43.9094717,-78.7084285,1,L1C 5A4,OK,street_address
263,ROOFTOP,"2399 Parkedale Ave, Brockville, ON K6V 3G9, Canada",ChIJU1frByIPzUwRosBFditFCgc,"2399 Parkedale Ave,Brockville,ON,Canada,K6V3G9",44.6029768,-75.698162,1,K6V 3G9,OK,street_address
264,ROOFTOP,"240 Leighland Ave, Oakville, ON L6H 3H6, Canada",ChIJL94fWtxcK4gR2sjzdD4m0mU,"240 Leighland Avenue,Oakville,ON,Canada,L6H 3H6",43.461607,-79.6868686,1,L6H 3H6,OK,premise
265,ROOFTOP,"2400 Eglinton Ave W, York, ON M6M 1S6, Canada",ChIJGyjKkvwzK4gRvo7BGTdaa-A,"2400 Eglinton Ave. W,Toronto,ON,Canada,M6M1S6",43.6932431,-79.46614629999999,1,M6M 1S6,OK,street_address
266,ROOFTOP,"2400 Yonge St, Toronto, ON M4P 2H4, Canada",ChIJ0SGqDiMzK4gRNhQ3o09dPps,"2400 Yonge St,Toronto,ON,Canada,M4P2H4",43.7100015,-79.3995236,1,M4P 2H4,OK,"electronics_store,establishment,home_goods_store,point_of_interest,store"
267,ROOFTOP,"2422 3 Ave, Fort MacLeod, AB T0L 0Z0, Canada",ChIJxyR1J2xablMRRtWpNiddyB0,"2422 3 Ave,Fort Macleod,AB,Canada,T0L0Z0",49.7260566,-113.405601,1,T0L 0Z0,OK,premise
268,ROOFTOP,"2446 Bank St, Ottawa, ON K1V 1A4, Canada",ChIJ9YiJuO4IzkwRWx6itbVEW2Q,"2446 Bank St,Ottawa,ON,Canada,K1V1A4",45.3528139,-75.6461188,1,K1V 1A4,OK,street_address
269,GEOMETRIC_CENTER,"245 Robie St, Truro, NS B2N 5N6, Canada",ChIJ3ynAxa9PWUsR_e0ezZ9SvCQ,"245 Robie Street,Truro,NS,Canada,B2N1L3",45.3706792,-63.3028564,1,B2N 5N6,OK,premise
270,ROOFTOP,"2450 Boulevard Laurier, Québec, QC G1V 2L1, Canada",ChIJrVwoKb2WuEwRUDaz7YDnRyo,"2450 boul. Laurier,Quebec ,QC,Canada,G1V 2L1",46.7735879,-71.2790953,1,G1V 2L1,OK,street_address
271,ROOFTOP,"2479 BC-97, Kelowna, BC V1X 4J2, Canada",ChIJQz5IANeMfVMR0wIqc5LC2SA,"2479 Highway 97 North,Kelowna,BC,Canada,V1X4J2",49.8879861,-119.4192332,1,V1X 4J2,OK,street_address
272,ROOFTOP,"2485 King George Hwy, Miramichi, NB E1V 6W7, Canada",ChIJn9UT3RD1oUwRU2a3AKaW3h0,"2485 King George Highway,Miramichi,NB,Canada,E1V6W2",47.0327969,-65.4895707,1,E1V 6W7,OK,premise
273,ROOFTOP,"25 Peel Centre Dr, Brampton, ON L6T 3R5, Canada",ChIJ8VxCI-Q9K4gREK7OXnENBjM,"25 Peel Centre Dr,Brampton,ON,Canada,L6T3R5",43.7154601,-79.72169819999999,1,L6T 3R5,OK,street_address
274,ROOFTOP,"25 Quarry St, Cochrane, AB T4C 2B7, Canada",ChIJvf_U4nw_cVMR7V0z7VyMU3o,"25 Quarry Street W,Cochrane,AB,Canada,T4C0W5",51.1849886,-114.472632,1,T4C 2B7,OK,premise
275,ROOFTOP,"25 The West Mall, Etobicoke, ON M9C 1B8, Canada",ChIJ4wXR3gZIK4gRGGW1gjvtmxg,"25 The West Mall,Etobicoke,ON,Canada,M9C 1B8",43.6116933,-79.557183,1,M9C 1B8,OK,premise
276,ROOFTOP,"25 Wayne Squibb Blvd, Fredericton, NB E3C 0G8, Canada",ChIJiw5GLTEipEwRgZOLxVookgc,"25 Wayne Squibb Blvd,Fredericton,NB,Canada,E3C0G1",45.9285653,-66.6647071,1,E3C 0G8,OK,street_address
277,ROOFTOP,"250 The East Mall, Etobicoke, ON M9B 3Y8, Canada",ChIJN8gwrPY3K4gROZvVVrDu1G4,"250 The East Mall,Toronto,ON,Canada,M9B 3Y8",43.6324095,-79.55648049999999,1,M9B 3Y8,OK,premise
278,ROOFTOP,"2500 Boulevard Talbot RR4, Chicoutimi, QC G7H 5B1, Canada",ChIJu1hyCcYSCUERkCLCL-yBGCE,"2500 Boul. Talbot, Rr4,Chicoutimi,QC,Canada,G7H4C1",48.3830467,-71.0827006,1,G7H 5B1,OK,"department_store,establishment,point_of_interest,store"
279,ROOFTOP,"2500 Winston Park Dr BUILDING A, Oakville, ON L6H 7E5, Canada",Ej5CVUlMRElORyBBLCAyNTAwIFdpbnN0b24gUGFyayBEciwgT2FrdmlsbGUsIE9OIEw2SCA3RTUsIENhbmFkYSImGiQKFgoUChIJ-aGKOqhDK4gRrR9JlaLT7E8SCkJVSUxESU5HIEE,"2500 WINSTON PARK DRIVE, BUILDING A,Oakville,ON,Canada,L6H 7E5",43.5162303,-79.6859041,1,L6H 7E5,OK,subpremise
280,ROOFTOP,"2525 36 St NE, Calgary, AB T1Y 6R4, Canada",ChIJJYrHqsNkcVMRStYYrHaa6hE,"2525 36 St. NE,Calgary,AB,Canada,T1Y5T4",51.073401,-113.9820196,1,T1Y 6R4,OK,street_address
281,ROOFTOP,"255 Dundas St E, Waterdown, ON L0R 2H6, Canada",ChIJL3kEB0KdLIgRQlmjtt8iM3Q,"255 Dundas St E,Waterdown,ON,Canada,L0R2H6",43.3310088,-79.89771610000001,1,L0R 2H6,OK,street_address
282,ROOFTOP,"2555 Range Rd, Prince George, BC V2N 4G8, Canada",ChIJQaZ_O0mZiFMRIsxTFYmfpwY,"2555 Range Road,Prince George,BC,Canada,V2N4G8",53.884049,-122.7717395,1,V2N 4G8,OK,premise
283,ROOFTOP,"260 Dundas St E, Trenton, ON K8V 3E2, Canada",ChIJsTksd_c91okRQ6jGwunru1c,"260 Dundas St. E,Trenton,ON,Canada,K8V1M2",44.10509,-77.558752,1,K8V 3E2,OK,street_address
284,ROOFTOP,"261055 Crossiron Blvd, Calgary, AB T4A 0G3, Canada",ChIJk2BwevpgcVMRsawW4E0YuEc,"261055 Crossiron Blvd,Calgary,AB,Canada,T4A0G3",51.2032209,-113.9930715,1,T4A 0G3,OK,premise
285,ROOFTOP,"2625a Weston Rd Unit 2-4, North York, ON M9N 3V8, Canada",EjlVbml0IDItNCwgMjYyNWEgV2VzdG9uIFJkLCBOb3J0aCBZb3JrLCBPTiBNOU4gM1Y4LCBDYW5hZGEiJBoiChYKFAoSCf1fzVnqMCuIEdpOhzdEEnZfEghVbml0IDItNA,"2625A Weston Rd, Unit 2-4,Toronto,ON,Canada,M9N3V8",43.7125245,-79.5348334,1,M9N 3V8,OK,subpremise
286,ROOFTOP,"1350 Spring St NW #1, Atlanta, GA 30309, USA",ChIJz4_nc1oE9YgRxihstPqFSoM,,33.791638,-84.389488,1,30309,OK,"bar,establishment,food,point_of_interest,restaurant"
287,ROOFTOP,"270 Hays Blvd, Oakville, ON L6H 6M4, Canada",ChIJV9WnCcpCK4gRHzHvOCMMWlk,"270 Hays Blvd,Oakville,ON,Canada,L6H7P3",43.48429730000001,-79.71742019999999,1,L6H 6M4,OK,premise
288,ROOFTOP,"2700 Rue Jean-Perrin, Québec, QC G2C 1S9, Canada",ChIJK9RoHIWXuEwRfj3B39DLB6Y,"2700 boul. Jean Perrin, Suite,Quebec,QC,Canada,G2C1S9",46.8218585,-71.31315769999999,1,G2C 1S9,OK,premise
289,ROOFTOP,"2751 Cliffe Ave, Courtenay, BC V9N 2L8, Canada",ChIJ_96GG34UiFQR5-PXjPH5dgQ,"2751 CLIFFE AVE,Courtenay,BC,Canada,V9N2L8",49.6735198,-124.9837886,1,V9N 2L8,OK,street_address
290,ROOFTOP,"277 Broadway St E, Yorkton, SK S3N 4B2, Canada",ChIJsZHB2sKt41IRL9FeF0V62fQ,"277 Broadway East,Yorkton,SK,Canada,S3N3G7",51.2121661,-102.4436174,1,S3N 4B2,OK,premise
291,ROOFTOP,"28 Pinebush Rd, Cambridge, ON N1R 8J8, Canada",ChIJdfknRqyJK4gRZolYsry1FMU,"28 PINEBUSH ROAD,Cambridge,ON,Canada,N1R 8K5",43.4127139,-80.3252275,1,N1R 8J8,OK,premise
292,ROOFTOP,"28 Stavanger Dr, St. John's, NL A1A 5E8, Canada",ChIJuRGZFLmmDEsRlvGZcRFHQpM,"28 Stavanger Drive,St. John's,NL,Canada,A1A5E8",47.61469,-52.7144521,1,A1A 5E8,OK,street_address
293,ROOFTOP,"280 Guelph St, Georgetown, ON L7G 4B1, Canada",ChIJQePYubQSK4gR13g3-7mUDT4,"280 Guelph St,Georgetown,ON,Canada,L7G4A8",43.6498909,-79.9013408,1,L7G 4B1,OK,premise
294,ROOFTOP,"285 Geneva St, St. Catharines, ON L2N 2E9, Canada",ChIJgbwOzvxQ04kRcnVH3bYfch4,"285 GENEVA ST,St. Catharines,ON,Canada,L2N 2G1",43.1777391,-79.2431139,1,L2N 2E9,OK,street_address
295,ROOFTOP,"2877 Chemin de Chambly, Longueuil, QC J4L 1M8, Canada",ChIJiz3jjpUEyUwRilT2pGjD8bg,"2877 Chemin de Chambly,Longueuil,QC,Canada,J4L1M8",45.52197899999999,-73.4598474,1,J4L 1M8,OK,premise
296,ROOFTOP,"Building, 290 King George Rd, Brantford, ON N3R 5L8, Canada",ChIJCw6kb35vLIgRcGHJljs_Qv8,"290 King George Rd,Brantford,ON,Canada,N3R5K2",43.1813869,-80.27864869999999,1,N3R 5L8,OK,premise
297,ROOFTOP,"2900 Drinkwater Rd, Duncan, BC V9L 6C6, Canada",ChIJiW3h6BBPj1QRchyNcwcG6ys,"2900 Drinkwater Rd,Duncan,BC,Canada,V9L6C6",48.8026157,-123.7170735,1,V9L 6C6,OK,street_address
298,ROOFTOP,"2900 Warden Ave, Scarborough, ON M1W 2S8, Canada",ChIJi44H4LvT1IkRAhokOAzncBg,"2900 Warden Ave,Toronto,ON,Canada,M1W2S8",43.7984738,-79.31821269999999,1,M1W 2S8,OK,premise
299,ROOFTOP,"2901 Bayview Ave, North York, ON M2K 1E6, Canada",ChIJI53iVUktK4gR7OLc9NArUio,"2901 Bayview Ave.,Toronto,ON,Canada,M2K 1E6",43.7691552,-79.385939,1,M2K 1E6,OK,street_address
300,ROOFTOP,"2929 Barnet Hwy, Coquitlam, BC V3B 0G2, Canada",ChIJC637aTN_hlQRW5r1KoAh6D8,"2929 Barnet Highway,Coquitlam,BC,Canada,V3B0B9",49.2798295,-122.7980735,1,V3B 0G2,OK,premise
301,ROOFTOP,"293 Bay St, Sault Ste. Marie, ON P6A 1X3, Canada",ChIJWTeruck5Nk0RXGVDMO3yUB0,"293 BAY ST,Sault Ste Marie,ON,Canada,P6A1X3",46.5124381,-84.3390775,1,P6A 1X3,OK,premise
302,ROOFTOP,"2945 Jacklin Rd, Victoria, BC V9B 5E3, Canada",ChIJ79ANiAQNj1QR4Nz-qZ9dtPE,"2945 Jacklin Rd,Victoria,BC,Canada,V9B5E3",48.4398998,-123.5085874,1,V9B 5E3,OK,subpremise
303,ROOFTOP,"295 Wellington St, Bracebridge, ON P1L 1P3, Canada",ChIJaRmFZGCGKk0RqjBXjBxm_kI,"295 Wellington Street,Bracebridge,ON,Canada,P1L1P3",45.0432333,-79.3225635,1,P1L 1P3,OK,street_address
304,RANGE_INTERPOLATED,"2960 Kingsway Dr, Kitchener, ON N2C 2L8, Canada",Ei8yOTYwIEtpbmdzd2F5IERyLCBLaXRjaGVuZXIsIE9OIE4yQyAyTDgsIENhbmFkYSIbEhkKFAoSCfeqtifZiiuIEbs1aW8YoOS1EJAX,"2960 KINGSWAY DR,Kitchener,ON,Canada,N2C 1X1",43.4266049,-80.43868549999999,1,N2C 2L8,OK,street_address
305,ROOFTOP,"2965 Gordon Rd, Regina, SK S4S 6H7, Canada",ChIJQbUMgMqgHlMROSpCI-dYrIk,"2965 Gordon Rd,Regina,SK,Canada,S4S6H7",50.4024646,-104.6231499,1,S4S 6H7,OK,street_address
306,ROOFTOP,"2975 Argentia Rd, Mississauga, ON L5N 0A2, Canada",ChIJY_AXS1VqK4gRyDtTu1deoKM,"2975 ARGENTIA ROAD,Mississauga,ON,Canada,L5N0A2",43.5996332,-79.7850204,1,L5N 0A2,OK,premise
307,ROOFTOP,"298 Boul Thériault, Rivière-du-Loup, QC G5R 4C2, Canada",ChIJBWQvVkhHvkwRDc4gFmfg5mU,"298 boul. Theriault,Riviere du Loup,QC,Canada,G5R4C2",47.8245577,-69.5494586,1,G5R 4C2,OK,street_address
308,ROOFTOP,"2999 Autoroute 440, Laval, QC H7P 4W5, Canada",ChIJs1oqu-gjyUwRGyY-QUMOXKk,"2999 Autoroute 440,Laval,QC,Canada,H7P5P4",45.5751563,-73.75585,1,H7P 4W5,OK,street_address
309,ROOFTOP,"3 N Service Rd, St. Catharines, ON L2N 7P9, Canada",ChIJ6xEGIQNR04kRH-1RRHXTBdQ,"3 North Service Rd,St. Catharines,ON,Canada,L2N7R1",43.1778298,-79.2481506,1,L2N 7P9,OK,street_address
310,ROOFTOP,"3 Stavanger Dr, St. John's, NL A1A 5E8, Canada",ChIJAfsJ0b2mDEsRUXYGriyF_WQ,"3 STAVANGER DRIVE,St. John's,NL,Canada,A1A5E8",47.6156094,-52.7221917,1,A1A 5E8,OK,subpremise
311,ROOFTOP,"300 Borough Dr, Scarborough, ON M1P 4P5, Canada",ChIJ26jCK6bR1IkRiJtt7CAjMwM,"300 Borough Dr,Scarborough,ON,Canada,M1P4P5",43.7767555,-79.2590081,1,M1P 4P5,OK,street_address
312,ROOFTOP,"49-50, 300 Confederation Dr, Saskatoon, SK S7L 1J2, Canada",ChIJSfWhBWj3BFMR9jGUgE1_r9w,"300 Confederation Dr,Saskatoon,SK,Canada,S7L4R6",52.1326619,-106.7213718,1,S7L 1J2,OK,premise
313,ROOFTOP,"300 Mystery Lake Rd, Thompson, MB R8N 0M2, Canada",ChIJKxvBA3fGX1IRnYvaNlwakHI,"300 Mystery Lake Road,Thompson,MB,Canada,R8N0M2",55.7441132,-97.8482894,1,R8N 0M2,OK,street_address
314,ROOFTOP,"300 Retail Dr, Saint John, NB E2J 2R2, Canada",ChIJqTTMhv6yp0wRpZ76SZ2EM7Y,"300 Retail Drive,Saint John,NB,Canada,E2J2R2",45.3057555,-66.0280258,1,E2J 2R2,OK,premise
315,ROOFTOP,"300 Rue Bridge, Montréal, QC H3K 2C3, Canada",ChIJnbp_Fo8ayUwRkw6nD3Jiob0,"300 Rue Bridge,Montreal,QC,Canada,H3K2C3",45.486222,-73.554035,1,H3K 2C3,OK,street_address
316,ROOFTOP,"3003 Danforth Ave, East York, ON M4C 1M9, Canada",ChIJpxKIHyLM1IkRjpb_2lYY0y8,"3003 Danforth Ave,Toronto,ON,Canada,M4C 1N1",43.68967929999999,-79.2906429,1,M4C 1M9,OK,street_address
317,ROOFTOP,"3015 Bloor St W, Etobicoke, ON M8X 1C5, Canada",ChIJB9dndlQ2K4gRCrdxJQO5WP0,"3015 Bloor Street West,Etobicoke,ON,Canada,M8X1C5",43.6470714,-79.51155589999999,1,M8X 1C5,OK,premise
318,ROOFTOP,"3021 Argentia Rd, Mississauga, ON L5N, Canada",ChIJA55XT6trK4gROD3zqZUgQhE,"3021 Argentia Road,Mississauga,ON,Canada,L5N8P7",43.5967501,-79.7854553,1,L5N,OK,premise
319,RANGE_INTERPOLATED,"3035 Boulevard le Carrefour, Laval, QC H7T 1X5, Canada",Ei4zMDM1IEJvdWxldmFyZCBsZSBDYXJyZWZvdXIsIExhdmFsLCBRQywgQ2FuYWRhIhsSGQoUChIJkZq2vMMjyUwRBRKHj-iPj6kQ2xc,"3035 Boulevard Le Carrefour,Laval,QC,Canada,H7T1C8",45.5684805,-73.7497193,1,H7T 1X5,OK,street_address
320,ROOFTOP,"3041 152 St, Surrey, BC V4P 3K1, Canada",ChIJPRI_obDEhVQR-NNquNZzuRk,"3041 152nd St.,South Surrey,BC,Canada,V4P3K1",49.057205,-122.8016212,1,V4P 3K1,OK,premise
321,ROOFTOP,"3050 Boul de Portland, Sherbrooke, QC J1L 1K1, Canada",ChIJH8CugpW0t0wRdYk-MJh41UI,"3050 Boulevard Portland,Sherbrooke,QC,Canada,J1L1K1",45.4014722,-71.9542829,1,J1L 1K1,OK,subpremise
322,ROOFTOP,"3055 Massey Dr, Prince George, BC V2N 2S9, Canada",ChIJaxeeyD-ZiFMR4DypWi4avgQ,"3055 Massey Drive,Prince George,BC,Canada,V2N2S9",53.8973582,-122.7774471,1,V2N 2S9,OK,premise
323,ROOFTOP,"3090 Boulevard de la Gare, Vaudreuil-Dorion, QC J7V 8P2, Canada",ChIJEzAT2yU2yUwRjsuRcAOkM8s,"3090 BOULEVARD DE LA GARE,Vaudreuil-Dorion,QC,Canada,J7V0H1",45.3982913,-74.0546675,1,J7V 8P2,OK,premise
324,ROOFTOP,"3100 Howard Ave, Windsor, ON N8X 3Y7, Canada",ChIJG21riQ0sO4gRvmsRFn1ApDg,"3100 Howard Ave,Windsor,ON,Canada,N8X3Y8",42.27565980000001,-83.0037396,1,N8X 3Y7,OK,"establishment,point_of_interest,subpremise"
325,ROOFTOP,"3103 Boulevard Royal, Shawinigan, QC G9N 7C1, Canada",ChIJw1kmjitMxkwR75ZiXKd8uqc,"3103 Boulevard Royal,Shawinigan,QC,Canada,G9N7C1",46.5622944,-72.7399162,1,G9N 7C1,OK,premise
326,ROOFTOP,"312 Val-d'Amour Rd, Campbellton, NB E3N 3H3, Canada",ChIJUToINeQgmEwRo4cp5yPv0DI,"312 Val d'Amour Road,Atholville,NB,Canada,E3N 4E2",47.9937531,-66.699206,1,E3N 3H3,OK,premise
327,ROOFTOP,"3122 Mount Lehman Rd, Abbotsford, BC V4X 2K9, Canada",ChIJpVV089nKhVQRrqmFK5wihvI,"3122 Mt Lehman Rd,Abbotsford,BC,Canada,V2T0C5",49.0579447,-122.3784049,1,V4X 2K9,OK,street_address
328,RANGE_INTERPOLATED,"3131 Boulevard de la Côte-Vertu, Saint-Laurent, QC H4R 1Y8, Canada",EjszMTMxIEJvdWxldmFyZCBkZSBsYSBDw7R0ZS1WZXJ0dSwgU2FpbnQtTGF1cmVudCwgUUMsIENhbmFkYSIbEhkKFAoSCS0nHb0CGMlMETcgI795LAm-ELsY,"3131 Boulevard Cote Vertu,St-Laurent,QC,Canada,H4R1Y8",45.49725309999999,-73.7042535,1,H4R 1Y8,OK,street_address
329,ROOFTOP,"3147 Douglas St, Victoria, BC V8Z 6E3, Canada",ChIJqebZp51zj1QRfAvDnh-HlvY,"3147 Douglas St,Victoria,BC,Canada,V8Z6E3",48.447513,-123.3718397,1,V8Z 6E3,OK,premise
330,ROOFTOP,"317 7 Ave SW, Calgary, AB T2P 2Z1, Canada",ChIJwV0Lw_xvcVMReXsauP-2QkM,"317 7th Ave SW,Calgary,AB,Canada,T2P1B5",51.0464549,-114.0685307,1,T2P 2Z1,OK,street_address
331,ROOFTOP,"317 Banff Ave, Banff, AB T1L 1C1, Canada",ChIJI3X6h0XKcFMRpXVoFhztz90,"317 Banff Ave,Banff,AB,Canada,T1L1C1",51.1786786,-115.5713979,1,T1L 1C1,OK,street_address
332,ROOFTOP,"3170 Tillicum Rd, Victoria, BC V9A 7C5, Canada",ChIJVZhVKAxzj1QRcW92Qrxo6dw,"3170 Tillicum Rd,Victoria,BC,Canada,V9A7C5",48.4540906,-123.3960997,1,V9A 7C5,OK,premise
333,ROOFTOP,"3180 Laird Rd, Mississauga, ON L5L 6A5, Canada",ChIJMY-Vr65DK4gR0kpXwSfXPrk,"3180 Laird Road,Mississauga,ON,Canada,L5L 6A5",43.521047,-79.6889729,1,L5L 6A5,OK,premise
334,ROOFTOP,"31956 Lougheed Hwy, Mission, BC V2V 1A1, Canada",ChIJq_brLowzhFQRQWkJPCzNnpw,"31956 LOUGHEED HWY,Mission,BC,Canada,V2V1A1",49.13186930000001,-122.3402177,1,V2V 1A1,OK,street_address
335,RANGE_INTERPOLATED,"320 Boulevard Saint-Joseph, Gatineau, QC J8Y, Canada",EjAzMjAgQm91bGV2YXJkIFNhaW50LUpvc2VwaCwgR2F0aW5lYXUsIFFDLCBDYW5hZGEiGxIZChQKEgkRKCYRnATOTBGhG6aaf1wJbRDAAg,"320 Boul. St-Joseph,Gatineau,QC,Canada,J8Y 3Y3",45.441047,-75.7328457,1,J8Y,OK,street_address
336,ROOFTOP,"3200 Boulevard Laframboise, Saint-Hyacinthe, QC J2S 8B9, Canada",ChIJE_2_ij1OyEwRmsQ4RKKwTaE,"3200 Boulevard Laframboise,St-Hyacinthe,QC,Canada,J2S4Z5",45.6385835,-72.9661524,1,J2S 8B9,OK,subpremise
337,ROOFTOP,"3200 Mayor Magrath Dr S, Lethbridge, AB T1K 6Y6, Canada",ChIJG_OIp3SGblMRACdcpKszCx0,"3200 Mayor Magrath Dr. S.,Lethbridge,AB,Canada,K1N9J7",49.660545,-112.795721,1,T1K 6Y6,OK,street_address
338,ROOFTOP,"3200 N Island Hwy, Nanaimo, BC V9T 1W1, Canada",ChIJ86tYCRyiiFQR1iI1DI9a7Lc,"3200 North Island Highway,Nanaimo,BC,Canada,V9T1W1",49.205754,-124.0050787,1,V9T 1W1,OK,street_address
339,ROOFTOP,"3210 118 Ave NW, Edmonton, AB T5W 4Y2, Canada",ChIJ47GslSY9oFMRDqSUpYUI65w,"3210 118 Ave NW,Edmonton,AB,Canada,T5W4W1",53.5714822,-113.3905525,1,T5W 4Y2,OK,street_address
340,ROOFTOP,"3233 Avenue Watt, Québec, QC G1X 4C1, Canada",ChIJ7dzBx0uXuEwRGTF2ksGdSGk,"3233 Rue Watt,Quebec,QC,Canada,G1X4W2",46.78103979999999,-71.3288053,1,G1X 4C1,OK,street_address
341,ROOFTOP,"325 Rue de l'Église, Donnacona, QC G3M 2A2, Canada",ChIJhRnp855-x0wRmFSDb18IUOo,"325 Rue de l'Eglise,Donnacona,QC,Canada,G3M2A1",46.6808607,-71.7304808,1,G3M 2A2,OK,premise
342,ROOFTOP,"32530 Lougheed Hwy, Mission, BC V2V 1A5, Canada",ChIJS1fihfYzhFQRdhIkYOT8GEk,"32530 Lougheed Hwy,Mission,BC,Canada,V2V1A5",49.1321245,-122.3219061,1,V2V 1A5,OK,street_address
343,ROOFTOP,"3255 Hwy 7, Markham, ON L3R 3P3, Canada",ChIJ2YTMpu7U1IkRhtJeKzZMvE8,"3255 Highway 7 East,Markham,ON,Canada,L3R3P9",43.8498531,-79.34767219999999,1,L3R 3P3,OK,street_address
344,ROOFTOP,"32555 London Ave, Mission, BC V2V, Canada",ChIJe7AfwfUzhFQRQbn3FPRdIVA,"32555 LONDON AVE,Mission,BC,Canada,V2V6M7",49.1292974,-122.3204483,1,V2V,OK,street_address
345,ROOFTOP,"32900 S Fraser Way, Abbotsford, BC V2S 5A1, Canada",ChIJBUgfUFw1hFQRczpJQ0b-yuI,"32900 South Fraser Way,Abbotsford,BC,Canada,V2S5A1",49.049673,-122.3127539,1,V2S 5A1,OK,street_address
346,ROOFTOP,"3292 Dunmore Rd SE, Medicine Hat, AB T1B 2R4, Canada",ChIJVURKYZotE1MRSmnBVwxN8-w,"3292 Dunmore Road SE,Medicine Hat,AB,Canada,T1B2R4",50.0039398,-110.6472705,2,T1B 2R4,OK,street_address
347,ROOFTOP,"33 Heritage Meadows Way SE, Calgary, AB T2H 3B8, Canada",ChIJD9xE9sFwcVMRnngwiLHTDhg,"33 Heritage Meadows Way S.E,Calgary,AB,Canada,T2H3B8",50.9820652,-114.0395063,1,T2H 3B8,OK,street_address
348,ROOFTOP,"3310 8 St E UNIT 460, Saskatoon, SK S7H 5M3, Canada",ChIJ22s4JlnxBFMRNdZdG5iFryI,"3310 8th St E UNIT 460,Saskatoon,SK,Canada,S7H5M3",52.1131633,-106.6000432,1,S7H 5M3,OK,subpremise
349,ROOFTOP,"333 King St E, Toronto, ON M5A 3X5, Canada",ChIJp6ghzjvL1IkROKdmVjF0Fvs,"333 KING STREET E.,Toronto,ON,Canada,M5A3X5",43.6515919,-79.36617559999999,1,M5A 3X5,OK,street_address
350,ROOFTOP,"3333 Rue du Carrefour, Québec, QC G1C 5R9, Canada",ChIJAWJviL69uEwR4vW2b6UhNZQ,"3333 rue du Carrefour,Beauport,QC,Canada,G1C5R9",46.8606254,-71.217647,1,G1C 5R9,OK,premise
351,ROOFTOP,"3400 Rue King Ouest, Sherbrooke, QC J1L 1W3, Canada",ChIJ45ud6rq0t0wR7bRKJWW0SGM,"3400 Rue King Ouest,Sherbrooke,QC,Canada,J1L1C9",45.39216649999999,-71.9519847,1,J1L 1W3,OK,premise
352,ROOFTOP,"3401 Dufferin St, North York, ON M6A 2T9, Canada",ChIJYSXKCDMyK4gREyK5f3Ty1G0,"3401 Dufferin St.,Mississauga,ON,Canada,M6A2T9",43.7246843,-79.4541729,1,M6A 2T9,OK,street_address
353,ROOFTOP,"344 Rue Canada, Saint-Quentin, NB E8A 1H7, Canada",ChIJj3L9g0JPvUwR9heB01CxriI,"344 rue Canada,St Quentin,NB,Canada,E8A1H7",47.5214282,-67.39065289999999,1,E8A 1H7,OK,street_address
354,ROOFTOP,"3450 Uptown Blvd, Victoria, BC V8Z 0B9, Canada",ChIJU9oKRp9zj1QRBDuq8xxeKXs,"3450 Uptown Blvd.,Victoria,BC,Canada,V8X2S9",48.453759,-123.375102,1,V8Z 0B9,OK,street_address
355,ROOFTOP,"3495 Lawrence Ave E, Scarborough, ON M1H 1B3, Canada",ChIJH6tYl0DQ1IkRUf2xq8iuDx8,"3495 Lawrence Ave E,Scarborough,ON,Canada,M1H1B2",43.757291,-79.2293784,1,M1H 1B3,OK,street_address
356,ROOFTOP,"35 John Birchall Rd, Richmond Hill, ON L4S 0B2, Canada",ChIJH59cu6gqK4gRKFfiZIugmDE,"35 John Birchall Road,Richmond Hill,ON,Canada,L4S0B2",43.90170029999999,-79.3908343,1,L4S 0B2,OK,street_address
357,ROOFTOP,"35 Rue Principale, Saint-Pamphile, QC G0R 3X0, Canada",ChIJ1WniEbytvkwRwsnmyEstTIY,"35 rue Principale Nord,Saint-Pamphile,QC,Canada,G0R3X0",46.9606722,-69.77983549999999,1,G0R 3X0,OK,premise
358,ROOFTOP,"350 Stewart Green SW, Calgary, AB T3H 3C8, Canada",ChIJDfJvfwFycVMRfG8uVKrGkC8,"350 STEWART GREEN SW,Calgary,AB,Canada,T3H3C8",51.0150801,-114.1720384,1,T3H 3C8,OK,premise
359,ROOFTOP,"3500 Uptown Blvd, Victoria, BC V8Z 0B9, Canada",ChIJJ6PUWZ9zj1QRQZJDu2y1auE,"3500 Uptown Blvd,Victoria,BC,Canada,V8Z0B9",48.4543996,-123.3758378,1,V8Z 0B9,OK,street_address
360,ROOFTOP,"350r Shawville Blvd SE, Calgary, AB T2Y 4H3, Canada",ChIJyZaf23d2cVMRCXq4tg6DGz4,"350R Shawville Blvd SE,Calgary,AB,Canada,T2Y3S4",50.899164,-114.060562,1,T2Y 4H3,OK,street_address
361,ROOFTOP,"3510 8 St E, Saskatoon, SK S7H 5M3, Canada",ChIJnbensljxBFMRESMfD2_0D7U,"3510 8th Street East,Saskatoon,SK,Canada,S7H0W6",52.11304939999999,-106.5968512,1,S7H 5M3,OK,premise
362,ROOFTOP,"355 Hespeler Rd, Cambridge, ON N1R 6B3, Canada",ChIJvc34Rc2JK4gRhiy4neHv-30,"355 HESPELER RD,Cambridge,ON,Canada,N1R 6B3",43.39112840000001,-80.3220505,1,N1R 6B3,OK,premise
363,ROOFTOP,"3550 Brighton Ave, Burnaby, BC V5A 4W3, Canada",ChIJB816byl4hlQRQznGu-1JlD0,"3550 Brighton Avenue,Burnaby,BC,Canada,V5A4W3",49.2512184,-122.9170892,1,V5A 4W3,OK,premise
364,ROOFTOP,"3555 Johnston Rd, Port Alberni, BC V9Y 8K2, Canada",ChIJH00a-u32iFQRAnGFtvBosak,"3555 Johnston Rd,Port Alberni,BC,Canada,V9Y8K2",49.2664561,-124.7858397,1,V9Y 8K2,OK,premise
365,RANGE_INTERPOLATED,"3600 Avenue des Grandes Tourelles, Boisbriand, QC J7H 1M9, Canada",EkEzNjAwIEF2ZW51ZSBkZXMgR3JhbmRlcyBUb3VyZWxsZXMsIEJvaXNicmlhbmQsIFFDIEo3SCAxTTksIENhbmFkYSIbEhkKFAoSCV-S_HgqJslMEXfddWxaUvDkEJAc,"3600 Avenue Des Grandes Tourelles,Boisbriand,QC,Canada,J7H0A1",45.631451,-73.85137999999999,1,J7H 1M9,OK,street_address
366,ROOFTOP,"3625 Shaganappi Trail NW, Calgary, AB T3A 0E2, Canada",ChIJTQJkKxxvcVMRgdQrG6Hl5ag,"3625 Shaganappi Trail NW,Calgary,AB,Canada,T3A 0E2",51.084709,-114.154918,1,T3A 0E2,OK,premise
367,ROOFTOP,"367 Boulevard Arthur-Sauvé, Saint-Eustache, QC J7P 2B1, Canada",ChIJVysuTIIvyUwRqY3lCkF5Uec,"367 Boulevard Arthur-Sauve,St-Eustache,QC,Canada,J7P2B1",45.5619331,-73.9009459,1,J7P 2B1,OK,subpremise
368,ROOFTOP,"375 St Albert Trail, St. Albert, AB T8N 3K8, Canada",ChIJRdptVecloFMRGZO6L_nbR_4,"375 ST. Albert Road,St. Albert,AB,Canada,T8N3K8",53.6427211,-113.622506,1,T8N 3K8,OK,premise
369,ROOFTOP,"3777 Strandherd Dr, Nepean, ON K2J 4B1, Canada",ChIJp3KnDN38zUwRtTg1znM8NF4,"3777 Strandherd,Barrhaven,ON,Canada,K2J4B1",45.26815240000001,-75.7466046,1,K2J 4B1,OK,premise
370,ROOFTOP,"380 Coventry Rd, Ottawa, ON K1K 2C6, Canada",ChIJ_aHWnH4FzkwR8QxcdQv4P8Q,"380 COVENTRY ROAD,Ottawa,ON,Canada,K1K2C6",45.4204595,-75.64926489999999,1,K1K 2C6,OK,street_address
371,ROOFTOP,"3800 Memorial Dr, Calgary, AB T2A 2K2, Canada",ChIJIw79IS97cVMRJKgoLXvYqLg,"3800 Memorial Dr NE,Calgary,AB,Canada,T2A2K2",51.0540882,-113.9781987,1,T2A 2K2,OK,street_address
372,ROOFTOP,"3850 Sheppard Ave E, Scarborough, ON M1T 3L3, Canada",ChIJj-wsPNXT1IkRuG1mTskjN-Q,"3850 Sheppard Avenue East,Scarborough,ON,Canada,M1T3L4",43.7841871,-79.29215060000001,1,M1T 3L3,OK,premise
373,ROOFTOP,"387 Montée Industrielle-et-Commerciale, Rimouski, QC G5M 1Y1, Canada",ChIJ00opPcnZlUwRuQWRHdpFLcY,"387 MONTEE INDUSTRIELLE-ET-COMMERCIALE,Rimouski,QC,Canada,G5M1Y1",48.45609530000001,-68.4985718,1,G5M 1Y1,OK,street_address
374,ROOFTOP,"390 N Front St, Belleville, ON K8P 3C9, Canada",ChIJe_ubjnUl1okRAgJHGDmYA0I,"390 North Front St,Belleville,ON,Canada,K8P3E1",44.189134,-77.397489,1,K8P 3C9,OK,street_address
375,ROOFTOP,"393 Portage Ave, Winnipeg, MB R3B 3H6, Canada",ChIJI4yqWFdx6lIRdxhrEKv9eqI,"393 Portage Avenue,Winnipeg,MB,Canada,R3B3H6",49.89260059999999,-97.14846,1,R3B 3H6,OK,street_address
376,ROOFTOP,"40 Boulevard Norbert Morin, Sainte-Agathe-des-Monts, QC J8C 2V6, Canada",ChIJ__-DvLRqz0wRa5Mha9dQTxI,"40 Boulevard Morin,Ste-Agathe-Des-Monts,QC,Canada,J8C2V6",46.0473988,-74.2787902,1,J8C 2V6,OK,street_address
377,ROOFTOP,"40 McEwan Dr E, Bolton, ON L7E 2Y3, Canada",ChIJdZ0a6YshK4gRD08-06ujw5U,"40 McEwan Dr. E,Bolton,ON,Canada,L7E2Y3",43.8633838,-79.71286719999999,1,L7E 2Y3,OK,premise
378,ROOFTOP,"40 Rue Évangéline, Granby, QC J2G 8K1, Canada",ChIJ81M8F4zOyUwRFNdmwbTl3KQ,"40 Rue Evangeline,Granby,QC,Canada,J2G8K1",45.4153251,-72.7498547,1,J2G 8K1,OK,street_address
379,ROOFTOP,"400 Boulevard du Séminaire N, Saint-Jean-sur-Richelieu, QC J3B 5L2, Canada",ChIJT9i56TWiyUwRVeZq12JmGws,"400 Boulevard Seminaire Nord,St-Jean-Sur-Richelieu,QC,Canada,J3B5L2",45.3115473,-73.2670444,1,J3B 5L2,OK,street_address
380,ROOFTOP,"400 King St #1500, Estevan, SK S4A 2B4, Canada",Ei4xNTAwLCA0MDAgS2luZyBTdCwgRXN0ZXZhbiwgU0sgUzRBIDJCNCwgQ2FuYWRhIiAaHgoWChQKEgkrM6IymCIgUxHbM2qP80JiSBIEMTUwMA,"400 King St Unit 1500,Estevan,SK,Canada,S4A2B4",49.14561,-102.978022,1,S4A 2B4,OK,subpremise
381,ROOFTOP,"400 Sandwich St S, Amherstburg, ON N9V 3L4, Canada",ChIJCXgvI5A8O4gR8ILFpJlB3VM,"400 Sandwich St,Amherstburg,ON,Canada,N9V3L4",42.0965682,-83.1098639,1,N9V 3L4,OK,street_address
382,ROOFTOP,"401 Boulevard Curé-Labelle, Rosemère, QC J7A 3T2, Canada",ChIJlduWnLMnyUwRXzK7NUnC27Y,"401 Boulevard Cure-Labelle,Rosemere,QC,Canada,J7A3T2",45.6314047,-73.8178734,1,J7A 3T2,OK,street_address
383,ROOFTOP,"401 Kent St W, Lindsay, ON K9V 4Z1, Canada",ChIJZ6_pOMN71YkRB0-kEsRlga8,"401 Kent St W,Lindsay,ON,Canada,K9V4Z1",44.3485431,-78.7601955,1,K9V 4Z1,OK,premise
384,ROOFTOP,"41 Mapleview Dr E, Barrie, ON L4N 9A9, Canada",ChIJTyfko0W8KogRtCyHxfIA7w4,"41 Mapleview Drive East,Barrie,ON,Canada,L4N9A9",44.3341262,-79.6821337,1,L4N 9A9,OK,premise
385,ROOFTOP,"4125 Boulevard des Forges, Trois-Rivières, QC G8Y 1W1, Canada",ChIJA1DOSdrIx0wR55_UtqNiaps,"4125 Boulevard Des Forges,Trois Rivieres,QC,Canada,G8Y1W1",46.35577809999999,-72.58838589999999,1,G8Y 1W1,OK,street_address
386,ROOFTOP,"4141 Dixie Rd, Mississauga, ON L4W 1V5, Canada",ChIJwaKIJH44K4gR1VDhieNx2hc,"4141 Dixie Rd,Mississauga,ON,Canada,L4W1V5",43.625224,-79.6040702,1,L4W 1V5,OK,street_address
387,,,,"4151 Hazelbridge Way, #1050,RICHMOND,BC,Canada,V6X4J7",,,0,,REQUEST_DENIED,
388,ROOFTOP,"4160 Baldwin St S, Whitby, ON L1R 3H8, Canada",ChIJF6ZeUuge1YkRrcsGTfqKD74,"4160 Baldwin St S,Whitby,ON,Canada,L1R3H8",43.9192025,-78.96019980000001,1,L1R 3H8,OK,premise
389,RANGE_INTERPOLATED,"419 Boulevard Jessop, Rimouski, QC G5L 1N6, Canada",EjI0MTkgQm91bGV2YXJkIEplc3NvcCwgUmltb3Vza2ksIFFDIEc1TCAxTjYsIENhbmFkYSIbEhkKFAoSCREbDV7m2ZVMEXKJ1jLnpb7eEKMD,"419  boul. Jessop,Rimouski,QC,Canada,G5L7Y5",48.4680049,-68.5159171,1,G5L 1N6,OK,street_address
390,ROOFTOP,"419 King St W, Oshawa, ON L1J 2H9, Canada",ChIJN6hhrwEd1YkRQ6mobsUsMps,"419 King St W,Oshawa,ON,Canada,L1J2K5",43.8907422,-78.87987009999999,1,L1J 2H9,OK,street_address
391,ROOFTOP,"42 Overlea Blvd, Toronto, ON M4H 1B6, Canada",ChIJS3T1l-TM1IkRPCkjURS7KmU,"42 Overlea Blvd,Toronto,ON,Canada,M4H1B6",43.7073433,-79.3483158,1,M4H 1B6,OK,premise
392,ROOFTOP,"420 Vansickle Rd, St. Catharines, ON L2R 6P9, Canada",ChIJqffVH-tR04kRwZBB24nUvk0,"420 VANSICKLE RD,St. Catharines,ON,Canada,L2S0C7",43.1517263,-79.2677303,1,L2R 6P9,OK,street_address
393,ROOFTOP,"421 Lahave St, Bridgewater, NS B4V 3A2, Canada",ChIJY57tfsFnV0sRb8i4A4rR5VA,"421 Lahave Street,Bridgewater,NS,Canada,B4V3A2",44.377198,-64.5154506,1,B4V 3A2,OK,premise
394,ROOFTOP,"4218 Gateway Blvd NW, Edmonton, AB T6J 5J7, Canada",ChIJ6Y2-azEfoFMR1i01qtq4ZF0,"4218 Gateway Blvd. NW,Edmonton,AB,Canada,T6J5H2",53.4783233,-113.4929771,1,T6J 5J7,OK,street_address
395,ROOFTOP,"4225 Boulevard des Forges, Trois-Rivières, QC G8Y, Canada",ChIJXym6l9nIx0wRbbF9YjpUTJE,"4225 Boulevard Des Forges,Trois Rivieres,QC,Canada,G8Y1W1",46.3562107,-72.5891327,1,G8Y,OK,premise
396,GEOMETRIC_CENTER,"425 Caradoc St S, Strathroy, ON N7G 2P5, Canada",ChIJbdKeAAMEL4gRk610hd-pCPY,"425 Caradoc St. S,Strathroy,ON,Canada,N7G2P5",42.9472905,-81.611899,1,N7G 2P5,OK,premise
397,ROOFTOP,"4270 Rue Jean-Talon, Saint-Léonard, QC H1S 1J7, Canada",ChIJO--29bkeyUwRhTU27sw3g_k,"4270 Rue Jean-Talon Est,St-Leonard,QC,Canada,H1S1J7",45.56710710000001,-73.5885244,1,H1S 1J7,OK,street_address
398,ROOFTOP,"430 Topsail Rd, St. John's, NL A1E 4N1, Canada",ChIJt0hIoDujDEsR7W2LBTKpoi0,"430 Topsail Road,St. John's,NL,Canada,A1E4N1",47.534302,-52.7495519,1,A1E 4N1,OK,street_address
399,RANGE_INTERPOLATED,"4300 Steeles Ave E, Scarborough, ON L3R, Canada",Eis0MzAwIFN0ZWVsZXMgQXZlIEUsIFNjYXJib3JvdWdoLCBPTiwgQ2FuYWRhIhsSGQoUChIJbSJgoQnU1IkRNOvHAtSgcM0QzCE,"4300 Steeles Ave East,Markham,ON,Canada,L3R0Y5",43.8250037,-79.3058147,1,L3R,OK,street_address
400,ROOFTOP,"4307 130 Ave SE, Calgary, AB T2Z 3V8, Canada",ChIJNcPV8Z13cVMRBe3vnQJAOgU,"4307 130 Ave SE,Calgary,AB,Canada,T2Z3V8",50.9304438,-113.9731039,1,T2Z 3V8,OK,premise
401,ROOFTOP,"4313 Wellington Rd S, London, ON N6E 2Z8, Canada",ChIJV5G0WIHzLogREMnM9MBE9bo,"4313 Wellington Road South,London,ON,Canada,N6E 2Z8",42.9192813,-81.2122026,1,N6E 2Z8,OK,street_address
402,ROOFTOP,"4315 Strandherd Dr, Nepean, ON K2J 5P8, Canada",ChIJT0eg-lr8zUwROWE5CDl0828,"4315 Strandherd Dr,Barrhaven,ON,Canada,K2J5P8",45.2688881,-75.7842675,1,K2J 5P8,OK,street_address
403,RANGE_INTERPOLATED,"435 Stone Rd W, Guelph, ON N1G, Canada",EiI0MzUgU3RvbmUgUmQgVywgR3VlbHBoLCBPTiwgQ2FuYWRhIhsSGQoUChIJp-fzlCWFK4gREzWseDGtpU0QswM,"435 Stone Rd West,Guelph,ON,Canada,N1G 2X6",43.51602829999999,-80.2390073,1,N1G,OK,street_address
404,ROOFTOP,"4379 Walker Rd, Windsor, ON N8W 3T6, Canada",ChIJV3UQ-2EpO4gRJefwyCFLwdQ,"4379 WALKER ROAD,Windsor,ON,Canada,N8W3T6",42.2565326,-82.9667899,1,N8W 3T6,OK,premise
405,ROOFTOP,"44 Cedar Pointe Dr, Barrie, ON L4N 5R7, Canada",ChIJ3TFqGjS9KogRbtPedvwySSo,"44 Cedar Pointe Drive,Barrie,ON,Canada,L4N5R7",44.3821338,-79.7127746,1,L4N 5R7,OK,premise
406,ROOFTOP,"44 Maple Valley Rd, Corner Brook, NL A2H 6L8, Canada",ChIJv5dppRGye0sRnFDcsxqeb8I,"44 Maple Valley Road,Corner Brook,NL,Canada,A2H6L8",48.9474653,-57.91716389999999,1,A2H 6L8,OK,street_address
407,ROOFTOP,"440 Rue Bouvier, Québec, QC G2J 1E3, Canada",ChIJQy_ehNCXuEwRgEDawvGzqh8,"440 Rue Bouvier,Quebec,QC,Canada,G2J1E3",46.8395831,-71.2688139,1,G2J 1E3,OK,street_address
408,ROOFTOP,"4411 Walker Rd, Windsor, ON N8W 3T6, Canada",ChIJgdIaiWEpO4gR_-1_y61EkM4,"4411 Walker Road,Windsor,ON,Canada,N8W 3T6",42.2552853,-82.96645389999999,1,N8W 3T6,OK,premise
409,ROOFTOP,"Costco, 4438 King St E, Kitchener, ON N2P 2G4, Canada",ChIJ0d-UsEGKK4gRsPCG0qRp1oQ,"4438 King St. East,Kitchener,ON,Canada,N2G 3W6",43.4073556,-80.3914382,1,N2P 2G4,OK,premise
410,ROOFTOP,"7, 444 Yonge St, Toronto, ON M5B 2H4, Canada",ChIJ-Zyf_7Q0K4gR4XNQ0Rk1RVs,"444 Yonge Street,Toronto,ON,Canada,M5B2H4",43.6610059,-79.383213,1,M5B 2H4,OK,"establishment,point_of_interest"
411,ROOFTOP,"45 Overlea Blvd, Toronto, ON M4H 1C3, Canada",ChIJnwjAL_vM1IkR_luyK8bMTKk,"45 Overlea Blvd.,Toronto,ON,Canada,M4C1C3",43.7057953,-79.3460276,1,M4H 1C3,OK,premise
412,ROOFTOP,"450 Boulevard Poliquin, Sorel-Tracy, QC J3P 6X4, Canada",ChIJW4-zeF2PyEwRP5GUPOFjt-o,"450 Boulevard Poliquin,Sorel,QC,Canada,J3P7R5",46.0232721,-73.10369659999999,1,J3P 6X4,OK,premise
413,ROOFTOP,"450 Lansdowne St, Kamloops, BC V2C 1Y4, Canada",ChIJV0_gYaktflMRcIJG777KJF4,"450 Lansdowne St,Kamloops,BC,Canada,V2C1Y3",50.6770208,-120.3291165,1,V2C 1Y4,OK,street_address
414,,,,"4500 Kingsway, #1211,Burnaby,BC,Canada,V5H2A9",,,0,,REQUEST_DENIED,
415,ROOFTOP,"4500 Still Creek Dr, Burnaby, BC V5C 0B5, Canada",ChIJcZWi9CR3hlQRfDM7kIyXLnE,"4500 Still Creek Drive,Burnaby,BC,Canada,V5C0E5",49.2603928,-122.9991586,1,V5C 0B5,OK,premise
416,ROOFTOP,"4501 North Rd, Burnaby, BC V3N 4R7, Canada",ChIJu83YRj14hlQRG3XSBIhxBw8,"4501 North Rd,Burnaby,BC,Canada,V9L6K9",49.2439366,-122.8942124,1,V3N 4R7,OK,"establishment,food,point_of_interest,restaurant"
417,ROOFTOP,"45585 Luckakuck Way, Chilliwack, BC V2R 1A1, Canada",ChIJ74ele6RAhFQRF83-_KysxJA,"45585 LUCKAKUCK,Chilliwack,BC,Canada,V2R1A1",49.1425959,-121.9635576,1,V2R 1A1,OK,premise
418,,,,"4567 Lougheed Hwy, #224,Burnaby,BC,Canada,V5C3Z6",,,0,,REQUEST_DENIED,
419,ROOFTOP,"460 County Rd 17, Hawkesbury, ON K6A 2R2, Canada",ChIJVeqjgNzozkwRGIysQ-BJwFo,"460 County Rd 17,Hawkesbury,ON,Canada,K6A2R2",45.5922165,-74.5973861,1,K6A 2R2,OK,premise
420,ROOFTOP,"47 Paint St, Port Hawkesbury, NS B9A 3J9, Canada",ChIJj2i6bmfiXEsRQBKGUDv3PRY,"47 Paint Street,Port Hawkesbury,NS,Canada,B9A3J9",45.6166333,-61.3333111,1,B9A 3J9,OK,premise
421,,,,"4700 Kingsway, #1105,Burnaby,BC,Canada,V5H4M1",,,0,,REQUEST_DENIED,
422,ROOFTOP,"4741 Lakelse Ave, Terrace, BC V8G 4R9, Canada",ChIJQ_mQAO2ZdFQR3MYuYutu2gQ,"4741 Lakelse Ave.,Terrace,BC,Canada,V8G4R9",54.5163579,-128.596308,1,V8G 4R9,OK,street_address
423,RANGE_INTERPOLATED,"4747 67 St, Red Deer, AB T4N 5V3, Canada",Eig0NzQ3IDY3IFN0LCBSZWQgRGVlciwgQUIgVDROIDVWMywgQ2FuYWRhIhsSGQoUChIJQVrWbrRVdFMRdKP4Sp3EhVcQiyU,"4747 67 St,Red Deer,AB,Canada,T4N6H3",52.2884805,-113.8072121,1,T4N 5V3,OK,street_address
424,RANGE_INTERPOLATED,"4747 67 St, Red Deer, AB T4N 5V3, Canada",Eig0NzQ3IDY3IFN0LCBSZWQgRGVlciwgQUIgVDROIDVWMywgQ2FuYWRhIhsSGQoUChIJQVrWbrRVdFMRdKP4Sp3EhVcQiyU,"4747 67th St,Red Deer,AB,Canada,T4N6H3",52.2884805,-113.8072121,1,T4N 5V3,OK,street_address
425,ROOFTOP,"475 Grand Boulevard, L'Île-Perrot, QC J7V 4X4, Canada",ChIJT2H613I4yUwRJ6wU8tjVZjc,"475 Grand Boulevard,Ile-Perrot,QC,Canada,J7V4X4",45.3873535,-73.9657016,1,J7V 4X4,OK,premise
426,ROOFTOP,"475 Granville St, Summerside, PE C1N 4K6, Canada",ChIJwb4fHzWFX0sRjvviS-yfLqQ,"475 Granville Street,Summerside,PE,Canada,C1N3N9",46.4122254,-63.7808422,1,C1N 4K6,OK,premise
427,GEOMETRIC_CENTER,"4750 Rutherford Rd, Nanaimo, BC V9T, Canada",ChIJLSHEt6iYiFQREX2KsG5lLNg,"4750 Rutherford,Nanaimo,BC,Canada,V9T4K6",49.2180855,-124.0295551,1,V9T,OK,premise
428,ROOFTOP,"477 Paul St, Dieppe, NB E1A 1Y2, Canada",ChIJ_xWjK0u5oEwR__qnJT_mHK4,"477 Paul Street,Dieppe,NB,Canada,E1A4X5",46.0964227,-64.7613661,1,E1A 1Y2,OK,street_address
429,RANGE_INTERPOLATED,"48 Kenmount Rd, St. John's, NL A1B 3P8, Canada",Ei40OCBLZW5tb3VudCBSZCwgU3QuIEpvaG4ncywgTkwgQTFCIDNQOCwgQ2FuYWRhIhoSGAoUChIJmRLgHnqjDEsRdJHfsZJgi2sQMA,"48 Kenmount Road,St. John's,NL,Canada,A1B1W3",47.55903929999999,-52.7527151,1,A1B 3P8,OK,street_address
430,ROOFTOP,"480 Progress Ave, Scarborough, ON M1P 5J1, Canada",ChIJxRBoQKfR1IkRSzne1uCPbgo,"480 Progress Ave,Scarborough,ON,Canada,M1P5J1",43.7787632,-79.2599262,1,M1P 5J1,OK,street_address
431,,,,"4800 Kingsway,  #2240,Burnaby,BC,Canada,V5H4J2",,,0,,REQUEST_DENIED,
432,,,,"4820 Kingsway, #F109,Burnaby,BC,Canada,V5H4P1",,,0,,REQUEST_DENIED,
433,ROOFTOP,"485 The Parkway, Peterborough, ON K9J 6W8, Canada",ChIJtXajM6CN1YkRFFdehh1V658,"485 The Parkway,Peterborough,ON,Canada,K9J0B3",44.2733645,-78.34046219999999,1,K9J 6W8,OK,street_address
434,ROOFTOP,"489 Albert St N, Regina, SK S4R 2N6, Canada",ChIJT5zt5eMeHFMR5GsuF518TzQ,"489 Albert St N,Regina,SK,Canada,S4R3C4",50.4825477,-104.6152076,1,S4R 2N6,OK,street_address
435,RANGE_INTERPOLATED,"4900 27 St, Vernon, BC V1T 4Y9, Canada",EiY0OTAwIDI3IFN0LCBWZXJub24sIEJDIFYxVCA0WTksIENhbmFkYSIbEhkKFAoSCSN7OJCO2H1TEY0Gra5SF_QOEKQm,"4900 27th St,Vernon,BC,Canada,V1T7G7",50.28197,-119.266703,1,V1T 4Y9,OK,street_address
436,ROOFTOP,"4900 Molly Banister Dr, Red Deer, AB T4R 1N9, Canada",ChIJSyPjD75WdFMRxCaYzRM7oCs,"4900 Molly Banister Dr,Red Deer,AB,Canada,T4R1N9",52.2433592,-113.8102136,1,T4R 1N9,OK,premise
437,ROOFTOP,"499 Main St S, Brampton, ON L6Y 1N7, Canada",ChIJ4fWwYNY_K4gR4XE9WqivurE,"499 Main St S,Brampton,ON,Canada,L6Y1N7",43.6661412,-79.7375339,1,L6Y 1N7,OK,premise
438,ROOFTOP,"5 Broadway St, Redvers, SK S0C 2H0, Canada",ChIJQfj-IN2F4FIRCLt9OUz3704,"5 Broadway Street,Redvers,SK,Canada,S0C2H0",49.5674615,-101.6994056,1,S0C 2H0,OK,premise
439,GEOMETRIC_CENTER,"5 Complexe Desjardins, Montreal, Quebec H5B 1A0, Canada",ChIJAQAAzE8ayUwRk0lQfSlowO8,"5 Complexe Desjardins,Montreal,QC,Canada,H2X3Y2",45.5073696,-73.56410079999999,1,H5B 1A0,OK,"establishment,finance,point_of_interest"
440,ROOFTOP,"50 Ashtonbee Rd #2, Scarborough, ON M1L 4W6, Canada",EjMyLCA1MCBBc2h0b25iZWUgUmQsIFNjYXJib3JvdWdoLCBPTiBNMUwgNFc2LCBDYW5hZGEiHRobChYKFAoSCauZEv4JztSJEXRNhyu-vjLVEgEy,"50 Ashtonbee Rd, Unit 2,Scarborough,ON,Canada,M1L4R5",43.7300681,-79.2893327,1,M1L 4W6,OK,subpremise
441,ROOFTOP,"50 Bloor St W, Toronto, ON M4W, Canada",ChIJYYJBTK40K4gRRM7yEl2aJGg,"50 Bloor Street West ,Toronto,ON,Canada,M4W3L8",43.6703401,-79.3882622,1,M4W,OK,premise
442,ROOFTOP,"50 Plaza Blvd, Moncton, NB E1C 0G4, Canada",ChIJrdF8na24oEwRNp9dI81rdNY,"50 PLAZA BOULEVARD,Moncton,NB,Canada,E1C0G4",46.1124924,-64.8301123,1,E1C 0G4,OK,premise
443,GEOMETRIC_CENTER,"50 Queen Elizabeth Blvd, Etobicoke, ON M8Z 1M1, Canada",ChIJF8eP0DE2K4gRb8NzVXiVRG0,"50 Queen Elizabeth Blvd,Etobicoke,ON,Canada,M8Z1M1",43.6234511,-79.5076464,1,M8Z 1M1,OK,premise
444,ROOFTOP,"50 Rideau St, Ottawa, ON K1N 5W8, Canada",ChIJsR8CkwEFzkwRhSxrn7YLPR0,"50 Rideau Street,Ottawa,ON,Canada,K1N9J7",45.42527949999999,-75.69298189999999,1,K1N 5W8,OK,street_address
445,ROOFTOP,"50 Rue Dufferin, Salaberry-de-Valleyfield, QC J6S 3R4, Canada",ChIJ2c6iXzBOyUwRZPvPMhz_1yc,"50 rue Dufferin,Valleyfield,QC,Canada,J6S4W4",45.2606574,-74.1290753,1,J6S 3R4,OK,street_address
446,ROOFTOP,"500 2 Ave W, Prince Rupert, BC V8J 3T6, Canada",ChIJK3ZEXhPVclQRZX0BPpXIhxY,"500 2nd Ave. W,Prince Rupert,BC,Canada,V8J3T6",54.3132175,-130.3278146,1,V8J 3T6,OK,premise
447,ROOFTOP,"500 Rexdale Blvd, Etobicoke, ON M9W 6K5, Canada",ChIJFwpK50s6K4gR5LrE3ZGVcOM,"500 Rexdale Boulevard,Etobicoke,ON,Canada,M9W6K5",43.7206319,-79.6000253,1,M9W 6K5,OK,premise
448,ROOFTOP,"5000 Canoe Pass Way, Tsawwassen, BC V4M 4G9, Canada",ChIJtbp9HJPmhVQRO5ipAiYlZzQ,"5000 Canoe Pass Way,Tsawwassen,BC,Canada,V4M0B3",49.0378427,-123.0853249,1,V4M 4G9,OK,street_address
449,ROOFTOP,"5000 Hwy 7, Markham, ON L3R 4M9, Canada",ChIJv7QOx3fW1IkRhPwcw2gbZlw,"5000 Highway 7 East,Markham,ON,Canada,L3R4M9",43.8695391,-79.287043,1,L3R 4M9,OK,premise
450,ROOFTOP,"501 1 Ave S, Lethbridge, AB T1J 4L9, Canada",ChIJcb9naM-HblMRcu4FfmYAYY0,"501 1 Avenue South,Lethbridge,AB,Canada,T1J4J9",49.6987304,-112.8405995,1,T1J 4L9,OK,premise
451,ROOFTOP,"501 Main St, Esterhazy, SK S0A 0X0, Canada",ChIJ-79Dkrd84VIRmq-VebbNAlY,"501 Main Street,Esterhazy,SK,Canada,S0A0X0",50.6552166,-102.0779824,1,S0A 0X0,OK,premise
452,ROOFTOP,"5015 111 St NW, Edmonton, AB T6H 4M6, Canada",ChIJQWu98UYfoFMRAgIKJHpIQ9A,"5015 111 Street NW,Edmonton,AB,Canada,T6H4M6",53.4856393,-113.5136882,1,T6H 4M6,OK,street_address
453,ROOFTOP,"303, 505 Main St S, Airdrie, AB T4B 3K3, Canada",ChIJd4__BW5fcVMRwCE-qcFEaDA,"505 Main Street S,Airdrie,AB,Canada,T4B3K3",51.2886338,-114.0145264,1,T4B 3K3,OK,street_address
454,ROOFTOP,"505 Avenue Béthany, Lachute, QC J8H 4A6, Canada",ChIJ1VvXo0zazkwRAVBBKrY1hrQ,"505 Rue Bethany,Lachute,QC,Canada,J8H4A6",45.6384059,-74.3257453,1,J8H 4A6,OK,premise
455,ROOFTOP,"509 Bayfield St, Barrie, ON L4M 4Z8, Canada",ChIJ_1frw--iKogRBHWlXSHboOE,"509 Bayfield Street,Barrie,ON,Canada,L4M4Z8",44.4130869,-79.7080849,1,L4M 4Z8,OK,premise
456,ROOFTOP,"5100 Erin Mills Pkwy, Mississauga, ON L5M 4Z5, Canada",ChIJQ5YRf4lBK4gRsDIJlRY-pQU,"5100 Erin Mills Parkway,Mississauga,ON,Canada,L5M 4Z5",43.5586447,-79.7115912,1,L5M 4Z5,OK,premise
457,ROOFTOP,"5111 Northland Dr NW, Calgary, AB T2L 2J8, Canada",ChIJmSVxOTlvcVMRfAC9c-xXrQI,"5111 Northland Drive NW,Calgary,AB,Canada,T2L2J8",51.098413,-114.1437634,1,T2L 2J8,OK,premise
458,ROOFTOP,"515 McNeely Ave, Carleton Place, ON K7C 0A8, Canada",ChIJ13NDhqAO0kwRB1ec6TAdqcI,"515 McNeely Avenue,Carleton Place,ON,Canada,K1P5N4",45.1317444,-76.1190045,2,K7C 0A8,OK,premise
459,RANGE_INTERPOLATED,"519 Westmorland Rd, Saint John, NB E2J, Canada",Eio1MTkgV2VzdG1vcmxhbmQgUmQsIFNhaW50IEpvaG4sIE5CLCBDYW5hZGEiGxIZChQKEgmfO4b6V7KnTBGjnwIcBm0xUxCHBA,"519 Westmorland Road,Saint John,NB,Canada,E2J2H1",45.30960289999999,-66.0165186,1,E2J,OK,street_address
460,ROOFTOP,"52 First Commerce Dr Unit 2, Aurora, ON L4G 0H5, Canada",ChIJDVMcjgXTKogRrnmU_2PwDYo,"52 First Commerce Drive, Unit 2,Aurora,ON,Canada,L4G0H5",44.0122807,-79.41781499999999,1,L4G 0H5,OK,subpremise
461,ROOFTOP,"5201 Duke St, Halifax, NS B3J 1N9, Canada",ChIJAZaNiM0jWksRfifhUyW8KAQ,"5201 Duke St,Halifax,NS,Canada,B3J1N9",44.6496567,-63.5756494,1,B3J 1N9,OK,street_address
462,ROOFTOP,"5211 44 St, Lloydminster, AB T9V 0A7, Canada",ChIJF0B7boWyCVMRfRSFDXVspC4,"5211 44 Street,Lloydminster,AB,Canada,T9V0A7",53.2767557,-110.0126182,1,T9V 0A7,OK,premise
463,ROOFTOP,"5255 Richmond Rd SW, Calgary, AB T3E 6S9, Canada",ChIJawiRTflxcVMRdHmKDhwPguQ,"5255 Richmond Rd SW,Calgary,AB,Canada,T3E6S9",51.0166925,-114.1615359,1,T3E 6S9,OK,premise
464,,,,"5300 No. 3 Road, #432,RICHMOND,BC,Canada,V6X2X9",,,0,,REQUEST_DENIED,
465,ROOFTOP,"5401 Boulevard des Galeries, Québec, QC G2K 1N4, Canada",ChIJVX-OFZOXuEwRhh51FuR_1vk,"5401 Boul. Des Galeries,Quebec,QC,Canada,G2K1N4",46.8307264,-71.2993431,1,G2K 1N4,OK,premise
466,ROOFTOP,"548 Great Northern Rd, Sault Ste. Marie, ON P6B 4Z9, Canada",ChIJ6YXN0Zs3Nk0RJlvCp2BQUhI,"548 Great Northern Road,Sault Ste Marie,ON,Canada,P6B4Z9",46.5436823,-84.3178285,1,P6B 4Z9,OK,premise
467,ROOFTOP,"55 Ontario St S, Milton, ON L9T 2M3, Canada",ChIJAxAFraBvK4gRUQ1MsryOpU0,"55 Ontario St S,Milton,ON,Canada,L9T 2M3",43.5181797,-79.8753586,1,L9T 2M3,OK,premise
468,ROOFTOP,"550 Boulevard Wilfrid-Hamel, Québec, QC G1M 2S6, Canada",ChIJ9dOq_EaWuEwRH1g7HR1AZ9I,"550 Boul. Wifred Hamel,Quebec,QC,Canada,G1M3E5",46.8228166,-71.25055859999999,1,G1M 2S6,OK,street_address
469,ROOFTOP,"550 Hwy 7, Richmond Hill, ON L4B 3Z4, Canada",ChIJo-gXu0srK4gRGdrDVH5oi3s,"550 Highway 7 E,Richmond Hill,ON,Canada,L4B3Z4",43.8448143,-79.3833926,1,L4B 3Z4,OK,street_address
470,RANGE_INTERPOLATED,"550 King St N, Waterloo, ON N2L, Canada",EiM1NTAgS2luZyBTdCBOLCBXYXRlcmxvbywgT04sIENhbmFkYSIbEhkKFAoSCbUMmIHD8yuIESYFzVfUUi6pEKYE,"550 KING ST N,Waterloo,ON,Canada,N2L 5W6",43.4981038,-80.529718,1,N2L,OK,street_address
471,ROOFTOP,"552 Boulevard Wilfrid-Hamel, Québec, QC G1M 3E5, Canada",ChIJPZNPSv6WuEwRqyNFl_NMPmI,"552 boul. Wilfred Hamel,Quebec,QC,Canada,G1M2S6",46.8217471,-71.2499304,1,G1M 3E5,OK,street_address
472,ROOFTOP,"555 Essa Rd A8, Barrie, ON L4N 6A9, Canada",EitBOCwgNTU1IEVzc2EgUmQsIEJhcnJpZSwgT04gTDROIDZBOSwgQ2FuYWRhIh4aHAoWChQKEglNTopBu70qiBHBML4R9bpxBRICQTg,"555 ESSA RD Unit A8,Barrie,ON,Canada,L4N6A9",44.3382835,-79.71097759999999,1,L4N 6A9,OK,subpremise
473,ROOFTOP,"5755 Cowrie St, Sechelt, BC V0N 3A0, Canada",ChIJ-6W9mG86hlQRTabBpD_nzQ0,"5755 Cowrie St,Sechelt,BC,Canada,V0N3A0",49.4718331,-123.7610302,1,V0N 3A0,OK,premise
474,ROOFTOP,"5900 Rodeo Dr, Mississauga, ON L5R 3S9, Canada",ChIJk9JtQotAK4gRCi3lwY9buBM,"5900 Rodeo Drive,Mississauga,ON,Canada,L5R3S9",43.6121428,-79.6903758,1,L5R 3S9,OK,premise
475,ROOFTOP,"60 Bristol Rd E, Mississauga, ON L4Z 3K8, Canada",ChIJZ2dzhbBAK4gRWOZ1RVDgfbk,"60 Bristol Road East,Mississauga,ON,Canada,L4Z3K8",43.6151424,-79.6606372,1,L4Z 3K8,OK,premise
476,ROOFTOP,"60 Rue de Strasbourg, Candiac, QC J5R 0B4, Canada",ChIJ03YENEoMyUwRmDAY_EC3ws8,"60 Rue Strasbourg,Candiac,QC,Canada,J5R0B4",45.3706501,-73.5177539,1,J5R 0B4,OK,premise
477,ROOFTOP,"600 Boulevard Laflèche, Baie-Comeau, QC G5C 2X8, Canada",ChIJARysMpcLlEwRYGByvOUwU_4,"600 boul. Lafleche,Baie-Comeau,QC,Canada,G5C2X8",49.20177049999999,-68.2583212,1,G5C 2X8,OK,premise
478,ROOFTOP,"600 Rue Pierre-Caisse, Saint-Jean-sur-Richelieu, QC J3A 1M2, Canada",ChIJhZG-iGKhyUwRnc0sPTWSiXI,"600 Boulevard Pierre-Caisse,St-Jean-Sur-Richelieu,QC,Canada,J3A1M1",45.3295313,-73.28081809999999,1,J3A 1M2,OK,street_address
479,GEOMETRIC_CENTER,"600 Mitchell Rd S, Listowel, ON N4W 3T1, Canada",ChIJ_36qwlxdKYgRhqcIZUnsOQk,"600 MITCHELL AVE S,Listowel,ON,Canada,N4W3T1",43.730309,-80.96880209999999,1,N4W 3T1,OK,premise
480,ROOFTOP,"600 Rue Pierre-Caisse, Saint-Jean-sur-Richelieu, QC J3A 1M2, Canada",ChIJhZG-iGKhyUwRnc0sPTWSiXI,"600 Rue Pierre-Caisse,St-Jean-Sur-Richelieu,QC,Canada,J3A1M1",45.3295313,-73.28081809999999,1,J3A 1M2,OK,street_address
481,ROOFTOP,"6000 Boul Henri-Bourassa E, Montréal-Nord, QC H1G 2T6, Canada",ChIJ6ePyOKQfyUwR67_dsC5FIK0,"6000 Boulevard Henri Bourassa Est,Montreal,QC,Canada,H1G2T6",45.6061042,-73.616806,1,H1G 2T6,OK,premise
482,ROOFTOP,"1350 Spring St NW #1, Atlanta, GA 30309, USA",ChIJz4_nc1oE9YgRxihstPqFSoM,,33.791638,-84.389488,1,30309,OK,"bar,establishment,food,point_of_interest,restaurant"
483,,,,"6060 Minoru Boulevard, #1940,RICHMOND,BC,Canada,V6Y2V7",,,0,,REQUEST_DENIED,
484,ROOFTOP,"608 12 Ave E, Kindersley, SK S0L 1S2, Canada",ChIJwftkO3NADlMRw-jQhFY-ykY,"608 12th Ave,Kindersley,SK,Canada,S0L1S2",51.4761647,-109.1465232,1,S0L 1S2,OK,street_address
485,ROOFTOP,"61 Hanna Ave #4, Toronto, ON M6K 3N7, Canada",Eiw0LCA2MSBIYW5uYSBBdmUsIFRvcm9udG8sIE9OIE02SyAzTjcsIENhbmFkYSIdGhsKFgoUChIJ1WdQ6AM1K4gRIjFTdzbfdrMSATQ,"61 HANNA AVE Unit 4,Toronto,ON,Canada,M6K3N7",43.6394559,-79.4187824,1,M6K 3N7,OK,subpremise
486,,,,"61 Lynden Rd, Unit #A,Brantford,ON,Canada,N3R7J9",,,0,,REQUEST_DENIED,
487,,,,"610 SIXTH ST, #K9,New Westminster,BC,Canada,V3L3C2",,,0,,REQUEST_DENIED,
488,ROOFTOP,"621 Fairville Blvd, Saint John, NB E2M 3W3, Canada",ChIJJ1Y_w-u0p0wR0N_V82btsIk,"621 Fairville Blvd,Saint John,NB,Canada,E2M4X5",45.2534815,-66.0923755,1,E2M 3W3,OK,premise
489,ROOFTOP,"625 University Ave, Orillia, ON L3V 0Y7, Canada",ChIJ_TvYFaWuKk0RkXqOwiBe3eI,"625 University Avenue,Orilia,ON,Canada,L3V0Y7",44.5946681,-79.45365489999999,1,L3V 0Y7,OK,street_address
490,ROOFTOP,"635 Chemin de Touraine, Boucherville, QC J4B 5E4, Canada",ChIJe2ND7PkCyUwR_LO4MUVw78s,"635 Chemin De Touraine,Boucherville,QC,Canada,J4B5E4",45.5777388,-73.4056513,1,J4B 5E4,OK,premise
491,ROOFTOP,"645 Lansdowne Street West, Peterborough, ON K9J 7Y5, Canada",ChIJ_e0S9gON1YkRCwxMw05sfu0,"645 Lansdowne St W,Peterborough,ON,Canada,K9J1Z2",44.2839183,-78.3306793,2,K9J 7Y5,OK,street_address
492,ROOFTOP,"6455 Macleod Trail, Calgary, AB T2H 0K9, Canada",ChIJgxepaP9wcVMRonccqljR2Gs,"6455 MacLeod Trail,Calgary,AB,Canada,T2H0K8",50.9983915,-114.0734825,1,T2H 0K9,OK,street_address
493,ROOFTOP,"6464 Yonge St, North York, ON M2M 3X4, Canada",ChIJQ2_RL_4sK4gRGbIqr0WWXQw,"6464 Yonge Street,North York,ON,Canada,M2M3X4",43.7963811,-79.4220902,1,M2M 3X4,OK,"establishment,point_of_interest,shopping_mall"
494,ROOFTOP,"65 Dundas St W, Toronto, ON M5G 2C3, Canada",ChIJWesXpMs0K4gR5_omy8jQRy0,"65 DUNDAS STREET WEST,Toronto,ON,Canada,M5G2C3",43.6555453,-79.38332299999999,1,M5G 2C3,OK,street_address
495,ROOFTOP,"65 Kirkham Dr, Markham, ON L3S 0A9, Canada",ChIJeTUDzf7W1IkRDWOX-dG8Xc0,"65 Kirkham Drive,Markham,ON,Canada,L3S0A9",43.8514712,-79.2505772,1,L3S 0A9,OK,premise
496,ROOFTOP,"650 Terminal Ave, Nanaimo, BC V9R 5E2, Canada",ChIJ5SM_mlehiFQRv_NhLfPOVAM,"650 Terminal Ave,Nanaimo,BC,Canada,V9R5E2",49.1638555,-123.9338519,1,V9R 5E2,OK,street_address
497,ROOFTOP,"1350 Spring St NW #1, Atlanta, GA 30309, USA",ChIJz4_nc1oE9YgRxihstPqFSoM,,33.791638,-84.389488,1,30309,OK,"bar,establishment,food,point_of_interest,restaurant"
498,ROOFTOP,"6551 No 3 Rd, Richmond, BC V6Y 2B6, Canada",ChIJcTwlT8oKhlQRDZdjHSJDHog,"6551 No. 3 Road,RICHMOND,BC,Canada,V6Y2B6",49.16600529999999,-123.1385914,1,V6Y 2B6,OK,premise
499,ROOFTOP,"66 Wellington St W, Toronto, ON M5J 2W4, Canada",ChIJ8TnC0dI0K4gR8_rmDEAgsYA,"66 Wellington St W,Toronto,ON,Canada,M5K1A1",43.6473313,-79.38044119999999,1,M5J 2W4,OK,street_address
500,ROOFTOP,"6631 N Island Hwy, Nanaimo, BC V9T 4T7, Canada",ChIJYWhXK8mYiFQRdkY2QTz5Zqg,"6631 Island Highway North,Nanaimo,BC,Canada,V9T4T7",49.2365754,-124.0506274,1,V9T 4T7,OK,street_address
501,ROOFTOP,"6631 N Island Hwy, Nanaimo, BC V9T 4T7, Canada",ChIJYWhXK8mYiFQRdkY2QTz5Zqg,"6631 North Island Highway,Nanaimo,BC,Canada,V9T4T7",49.2365754,-124.0506274,1,V9T 4T7,OK,street_address
502,ROOFTOP,"6677 Meadowvale Town Centre Cir, Mississauga, ON L5N 2W7, Canada",ChIJ659bMmpqK4gRlhTVC3paZIQ,"6677 Meadowvale Town Center Circle,Mississauga,ON,Canada,L5N 2R5",43.5833672,-79.75978940000002,1,L5N 2W7,OK,premise
503,ROOFTOP,"670 University Ave, West Royalty, PE C1A 7M4, Canada",ChIJq1msJE6tX0sR7S_hdPXJgMo,"670 University Ave.,Charlottetown,PE,Canada,C1E1H6",46.2661543,-63.14471109999999,1,C1A 7M4,OK,street_address
504,ROOFTOP,"6700 Chemin de la Côte-des-Neiges, Montréal, QC H3S 2A8, Canada",ChIJFy02FMEZyUwRJxVW3Dx3fhE,"6700 Chemin Cote-Des-Neiges,Montreal,QC,Canada,H3S2A9",45.5026814,-73.6376751,1,H3S 2A8,OK,street_address
505,ROOFTOP,"6700 N Island Hwy, Nanaimo, BC V9V 1K8, Canada",ChIJAQAAc8yYiFQRImDelVrL_rQ,"6700 Island Highway North,Nanaimo,BC,Canada,V9V1K8",49.2373696,-124.0440878,1,V9V 1K8,OK,street_address
506,ROOFTOP,"68 Robie St, Truro, NS B2N 1K8, Canada",ChIJ3yq_B6RPWUsRNgxNn_xNrYc,"68 Robie Street,Truro,NS,Canada,B2N1L2",45.36627920000001,-63.31358580000001,1,B2N 1K8,OK,premise
507,ROOFTOP,"6800 48 Ave #116, Camrose, AB T4V 4T1, Canada",ChIJI1ERxja6ClMRtUvKvR2evBY,"6800 48 Ave, Unit 116,Camrose,AB,Canada,T4V4T1",53.0185308,-112.8601319,1,T4V 4T1,OK,street_address
508,,,,"6815 TRANS-CANADA HIGHWAY, LOCAL #Y009,Pointe-Claire,QC,Canada,H9R1C4",,,0,,REQUEST_DENIED,
509,ROOFTOP,"689 Westville Rd, New Glasgow, NS B2H 2J6, Canada",ChIJ06GMPB0cXEsRqZxKx4JK3X4,"689 Westville Rd,New Glasgow,NS,Canada,B2H2J6",45.5799447,-62.6668979,1,B2H 2J6,OK,premise
510,ROOFTOP,"69 Manitoba Dr, Clarenville, NL A5A 1K3, Canada",ChIJ-TR9q3N4dEsRNir-H1GxVRE,"69 Manitoba Drive,Clarenville,NL,Canada,A5A1K3",48.1644316,-53.980836,1,A5A 1K3,OK,premise
511,ROOFTOP,"693 Wonderland Rd N, London, ON N6H 4L1, Canada",ChIJLwSNgdLxLogRO_kMMZZPG7g,"693 Wonderland Road North,London,ON,Canada,N6H 4L1",42.9873586,-81.2928008,1,N6H 4L1,OK,street_address
512,ROOFTOP,"695 Wilson Ave, North York, ON M3K 1E3, Canada",ChIJJ1dRgDoyK4gRp0PCPwLhn7g,"695 Wilson Ave,Toronto,ON,Canada,M3K1E3",43.7320331,-79.45641289999999,1,M3K 1E3,OK,premise
513,ROOFTOP,"70 King William St, Huntsville, ON P1H 2A4, Canada",ChIJJ3wUucpzKk0RjIBwd9F2sc8,"70 King William St ,Huntsville,ON,Canada,P1H2A5",45.33508620000001,-79.2074016,1,P1H 2A4,OK,premise
514,ROOFTOP,"700 Lawrence Ave W, North York, ON M6A 3B4, Canada",ChIJPzV_ZLYzK4gRT0V38IGblAI,"700 Lawrence Ave. W,North York,ON,Canada,M6A3B4",43.7166569,-79.4472576,1,M6A 3B4,OK,street_address
515,ROOFTOP,"1350 Spring St NW #1, Atlanta, GA 30309, USA",ChIJz4_nc1oE9YgRxihstPqFSoM,,33.791638,-84.389488,1,30309,OK,"bar,establishment,food,point_of_interest,restaurant"
516,ROOFTOP,"7001 Mumford Rd, Halifax, NS B3L 2H8, Canada",ChIJ8d69r5khWksRN9S6kGplLzk,"7001 Mumford Road,Halifax,NS,Canada,B3J1H5",44.6493029,-63.618185,1,B3L 2H8,OK,premise
517,ROOFTOP,"7031 120 St, Delta, BC V4E 2A9, Canada",ChIJa1B_pV_ZhVQRHXXyCpg7BLE,"7031 120th St,Delta,BC,Canada,V4E2A9",49.1318201,-122.8923872,1,V4E 2A9,OK,street_address
518,ROOFTOP,"705 Avenue du Pont N, Alma, QC G8B 6T5, Canada",ChIJ3Qi0dkl26kwRTXZEzj_Of7g,"705 Avenue du Pont N,Alma,QC,Canada,G8B6T5",48.5621728,-71.6390256,1,G8B 6T5,OK,premise
519,ROOFTOP,"705 Rue Sainte-Catherine O Unit 2114A, Montréal, QC H3B 4G5, Canada",ChIJq2qvakQayUwR8ZQ4a7Ig0bU,"705 rue Ste -Catherine Ouest ,Montreal,QC,Canada,H3B4G5",45.50257329999999,-73.5706601,1,H3B 4G5,OK,"establishment,point_of_interest,store"
520,ROOFTOP,"7077 Boulevard Newman, LaSalle, QC H8N 1X1, Canada",ChIJTclgAt8QyUwR3zcK779sBkc,"7077 Boulevard Newman,LaSalle,QC,Canada,H8N1X1",45.44771739999999,-73.61506609999999,1,H8N 1X1,OK,premise
521,ROOFTOP,"71 Colossus Dr, Woodbridge, ON L4L 9J8, Canada",ChIJySb5EOsvK4gRB8AAmdHYGi4,"71 Colossus Drive,Woodbridge,ON,Canada,L4L9J8",43.78574,-79.5417277,1,L4L 9J8,OK,premise
522,ROOFTOP,"7100 Alberni St, Powell River, BC V8A 5K9, Canada",ChIJ8x0PkMTmh1QRR_JDoEwL5uw,"7100 Alberni St,Powell River,BC,Canada,V6E3Z3",49.8436464,-124.5165633,1,V8A 5K9,OK,"establishment,point_of_interest,shopping_mall"
523,ROOFTOP,"7155 Chemin de la Côte-Saint-Luc, Côte Saint-Luc, QC H4V 1J2, Canada",ChIJ9czpBj4XyUwRtHWiPs6rp_M,"7155 Chemin De La Cote-St-Luc,Montreal,QC,Canada,H4V1C7",45.4656817,-73.6553141,1,H4V 1J2,OK,street_address
524,ROOFTOP,"720 Sackville Dr, Lower Sackville, NS B4E 1R7, Canada",ChIJk2ak-8GIWUsR2_JWU_TmrTE,"720 Sackville Drive,Lower Sackville,NS,Canada,B4V1R8",44.7717692,-63.6934221,1,B4E 1R7,OK,street_address
525,ROOFTOP,"7205 Goreway Dr, Mississauga, ON L4T 4J1, Canada",ChIJE5zYcu07K4gRnqSlm4voP0s,"7205 Goreway Dr,Mississauga,ON,Canada,L4T2T9",43.7189728,-79.6375049,1,L4T 4J1,OK,street_address
526,ROOFTOP,"7259 Winterburn Rd NW, Edmonton, AB T5T 4K2, Canada",ChIJ41aHJ4mKn1MRKxURmt3bpTE,"7259 Winterburn Road NW,Edmonton,AB,Canada,T5T4K2",53.5091895,-113.6858615,1,T5T 4K2,OK,street_address
527,ROOFTOP,"7275 Rue Sherbrooke E, Montréal, QC H1N 1E9, Canada",ChIJeTB6QM0dyUwR7lHqpxQIiJI,"7275 Rue Sherbrooke Est,Montreal,QC,Canada,H1N1E9",45.5900109,-73.53922519999999,1,H1N 1E9,OK,"establishment,premise"
528,GEOMETRIC_CENTER,"7373 Rue Bombardier, Anjou, QC H1J 2V2, Canada",ChIJCU22Pk8eyUwRV6ATAYaU2X8,"7373 Rue Bombardier,Anjou,QC,Canada,H1J2V2",45.6092107,-73.5853909,1,H1J 2V2,OK,premise
529,ROOFTOP,"7423 King George Blvd, Surrey, BC V3W 5A8, Canada",ChIJdSj7CCzahVQRtANo2OGeH_4,"7423 King George Highway,Surrey,BC,Canada,V3W5A8",49.1381978,-122.8473124,1,V3W 5A8,OK,premise
530,ROOFTOP,"745 Kanata Ave, Kanata, ON K2T 1H9, Canada",ChIJT0A4LnQA0kwRFb4lkadbvaQ,"745 KANATA AVENUE,Kanata,ON,Canada,K2T1H9",45.3109367,-75.90964199999999,1,K2T 1H9,OK,premise
531,ROOFTOP,"745 Sackville Dr, Lower Sackville, NS B4E 2R2, Canada",ChIJQ67iEcCIWUsR26myMzzbj94,"745 Sackville Drive,Lower Sackville,NS,Canada,B4E2R2",44.7737698,-63.6911157,1,B4E 2R2,OK,premise
532,ROOFTOP,"75 Centennial Pkwy N, Hamilton, ON L8E 2P2, Canada",ChIJ0yNjZeyYLIgR7xo5xblihhA,"75 Centennial Pky. N,Hamilton,ON,Canada,L8E2P2",43.2311747,-79.7655715,1,L8E 2P2,OK,premise
533,ROOFTOP,"75 E Hills Blvd SE, Calgary, AB T2A 6J8, Canada",ChIJV5hqr2R7cVMRdfrkeLL9bcg,"75 East Hills Blvd,Calgary,AB,Canada,T2A6J8",51.0428156,-113.9176592,1,T2A 6J8,OK,premise
534,ROOFTOP,"75 King St S, Waterloo, ON N2J 1P2, Canada",ChIJD0GZlhL0K4gR1LoKQRxptWg,"75 King St South,Waterloo,ON,Canada,N2J1P2",43.46363059999999,-80.52343259999999,1,N2J 1P2,OK,street_address
535,ROOFTOP,"750 Avenue du Phare O, Matane, QC G4W 3W8, Canada",ChIJTUC0ytzAlkwRfYaMZKc9BTo,"750 av. Du Phare Ouest,Matane,QC,Canada,G4W3W8",48.8528876,-67.535657,1,G4W 3W8,OK,premise
536,ROOFTOP,"7501 44 St #101, Lloydminster, AB T9V 0X9, Canada",EjExMDEsIDc1MDEgNDQgU3QsIExsb3lkbWluc3RlciwgQUIgVDlWIDBYOSwgQ2FuYWRhIh8aHQoWChQKEglRaBgIbLIJUxFJyMDxE8GqwxIDMTAx,"7501 44 STREET, UNIT 101,Lloydminster,AB,Canada,T9V0X9",53.2759209,-110.0560585,1,T9V 0X9,OK,subpremise
537,ROOFTOP,"751 3 St SW, Calgary, AB T2P 4K8, Canada",ChIJK4MfzfxvcVMRsC_984LKx0E,"751 3rd ST SW,Calgary,AB,Canada,T2P4K8",51.0461119,-114.0709288,1,T2P 4K8,OK,street_address
538,ROOFTOP,"755 Boulevard René-Lévesque, Drummondville, QC J2C 6Y7, Canada",ChIJv_AfIMsTyEwRpEiKnUq17a8,"755 Boulevard Rene-Levesque,Drummondville,QC,Canada,J2C6Y7",45.8996723,-72.5170553,1,J2C 6Y7,OK,premise
539,RANGE_INTERPOLATED,"76 Starrs Rd, Yarmouth, NS B5A 3B5, Canada",Eio3NiBTdGFycnMgUmQsIFlhcm1vdXRoLCBOUyBCNUEgM0I1LCBDYW5hZGEiGhIYChQKEglL4_pEDhFWSxGXLpukrHs1JhBM,"76 Starrs Road,Yarmouth,NS,Canada,B5A2T5",43.8412654,-66.0988885,1,B5A 3B5,OK,street_address
540,ROOFTOP,"7650 Tecumseh Rd E, Windsor, ON N8T 1E9, Canada",ChIJn3PRN8IqO4gR2yBWyLF7M4Q,"7650 Tecumseh Road East,Windsor,ON,Canada,N8T1E9",42.3155764,-82.9355581,1,N8T 1E9,OK,street_address
541,ROOFTOP,"7654 Tecumseh Rd E, Windsor, ON N8T 1E9, Canada",ChIJ9ScRRsIqO4gRoBldqSlnmWU,"7654 Tecumseh Road East,Windsor,ON,Canada,N8T1E9",42.315601,-82.9355345,1,N8T 1E9,OK,premise
542,ROOFTOP,"767 Memorial Ave, Thunder Bay, ON P7B 3Z7, Canada",ChIJu0qDvfMhWU0RmZXdVPUPxTM,"767 Memorial Ave.,Thunder Bay,ON,Canada,P7B 3Z7",48.4129821,-89.2431405,1,P7B 3Z7,OK,street_address
543,ROOFTOP,"770 Gardiners Rd, Kingston, ON K7M 0A2, Canada",ChIJ_WlR-VCs0kwRR74vzlvjKK8,"770 Gardiners Rd,Kingston,ON,Canada,K7M3X9",44.249039,-76.56654209999999,1,K7M 0A2,OK,street_address
544,ROOFTOP,"770 Silver Seven Rd, Kanata, ON K2V 0A1, Canada",ChIJ1wCQ4XgA0kwRWg7eUfPJxIY,"770 Silver Seven Rd,Kanata,ON,Canada,K2V0A1",45.3026258,-75.91311639999999,1,K2V 0A1,OK,premise
545,ROOFTOP,"777 Guelph Line, Burlington, ON L7R 3N2, Canada",ChIJkZ9dOMlhK4gRo8ZlbjV7FBM,"777 Guelph Line,Burlington,ON,Canada,L7R3N2",43.3485131,-79.7935979,1,L7R 3N2,OK,premise
546,ROOFTOP,"777 Norquay Dr, Winkler, MB R6W 2S2, Canada",ChIJH4zQ53VJwlIRXUV3TFIfJg4,"777 Norquay Drive ,Winkler,MB,Canada,R6W2S2",49.19020500000001,-97.9298869,1,R6W 2S2,OK,premise
547,ROOFTOP,"779 McCallum Rd, Victoria, BC V9B 6A2, Canada",ChIJJ_j-U0cNj1QRNBdgDlml8jM,"779 MCCALLUM DRIVE,Langford,BC,Canada,V9B6A2",48.45944189999999,-123.4993785,1,V9B 6A2,OK,premise
548,ROOFTOP,"785 Wonderland Rd S, London, ON N6K 1M6, Canada",ChIJN1XplBzxLogRFm_gocI0HQ8,"785 Wonderland Rd. S,London,ON,Canada,N6K1M6",42.9478722,-81.2918443,1,N6K 1M6,OK,street_address
549,ROOFTOP,"7850 Weston Rd, Woodbridge, ON L4L 9N8, Canada",ChIJqZgJ9o0vK4gRosqrUVgUeCM,"7850 Weston Road,Woodbridge,ON,Canada,L4L9N8",43.7907483,-79.54901760000001,1,L4L 9N8,OK,street_address
550,ROOFTOP,"7959 McLeod Rd, Niagara Falls, ON L2H, Canada",ChIJu1rvOmZE04kR4Y-0v5cfrCQ,"7959 Mcleod Road,Niagara Falls,ON,Canada,L2H 0G5",43.0723432,-79.1285695,1,L2H,OK,premise
551,ROOFTOP,"799 McCallum Rd, Victoria, BC V9B 6A2, Canada",ChIJUfgXgkANj1QRMEvgAZZ2e34,"799 Mccallum Road,Langford,BC,Canada,V9B6A2",48.4582352,-123.5028042,1,V9B 6A2,OK,premise
552,ROOFTOP,"7999 Boulevard des Galeries d'Anjou, Anjou, QC H1M 1W9, Canada",ChIJNyTZCGUeyUwRCPsiiASQaLI,"7999 Boulevard des Galeries d'Anjou,Anjou,QC,Canada,H1M1W9",45.6006624,-73.5644021,1,H1M 1W9,OK,premise
553,ROOFTOP,"80 Consumers Dr, Saint John, NB E2J 4Z3, Canada",ChIJXbDrtviyp0wRGVeAh3gaFg4,"80 CONSUMERS DRIVE,Saint John,NB,Canada,E2J4Z3",45.3068414,-66.021416,1,E2J 4Z3,OK,premise
554,ROOFTOP,"80 Dufferin St, Perth, ON K7H 3A7, Canada",ChIJH-jPjY560kwRgT9drz7oX54,"80 Dufferin Street,Perth,ON,Canada,K7H1J3",44.9076224,-76.2649133,1,K7H 3A7,OK,premise
555,,,,"800 Carnarvon St, #368,New Westminster,BC,Canada,V3M0G3",,,0,,REQUEST_DENIED,
556,ROOFTOP,"800 Grand Lake Rd, Sydney, NS B1P 6S9, Canada",ChIJiwBqKafkZ0sRhRRNAf7Tmek,"800 Grand Lake Road,Sydney,NS,Canada,B1P6S9",46.1468421,-60.1384425,1,B1P 6S9,OK,street_address
557,RANGE_INTERPOLATED,"800 Niagara St, Welland, ON L3C, Canada",EiM4MDAgTmlhZ2FyYSBTdCwgV2VsbGFuZCwgT04sIENhbmFkYSIbEhkKFAoSCdXdXhaqSdOJEUjMgKBo3b7xEKAG,"800 Niagara St. N,Welland,ON,Canada,L3C 5Z4",43.01516669999999,-79.2497961,1,L3C,OK,street_address
558,APPROXIMATE,"Welland, ON, Canada",ChIJfUmvGstJ04kR5rZtIlVYoLY,"800 North Street,Welland,ON,Canada,L2C 5Z4",42.9921579,-79.2482555,1,,OK,"locality,political"
559,ROOFTOP,"800 Warden Ave, Scarborough, ON M1L 4T7, Canada",ChIJUV5iPXXO1IkRnODAd-7-cyE,"800 Warden Ave ,Scarborough,ON,Canada,M1L4T7",43.725259,-79.2879289,1,M1L 4T7,OK,street_address
560,ROOFTOP,"802 St Clair St, Chatham, ON N7L 0E8, Canada",ChIJa_zXs-VXJYgRhbqB9kbOWD0,"802 ST. CLAIR STREET,Chatham,ON,Canada,N7M5J7",42.4308662,-82.2233778,1,N7L 0E8,OK,premise
561,ROOFTOP,"805 Boyd St, New Westminster, BC V3M 5G7, Canada",ChIJYfcYX5rYhVQR6QhWgPjmDyg,"805 Boyd Street,New Westminster,BC,Canada,V3M5X2",49.19196179999999,-122.9488485,1,V3M 5G7,OK,street_address
562,ROOFTOP,"8120 Beddington Blvd NW, Calgary, AB T3K 2A8, Canada",ChIJvxQ9fddlcVMR9MQ6S8Z01s4,"8120 Beddington Blvd NW,Calgary,AB,Canada,T3K2A8",51.1272654,-114.0736186,1,T3K 2A8,OK,premise
563,ROOFTOP,"1350 Spring St NW #1, Atlanta, GA 30309, USA",ChIJz4_nc1oE9YgRxihstPqFSoM,,33.791638,-84.389488,1,30309,OK,"bar,establishment,food,point_of_interest,restaurant"
564,RANGE_INTERPOLATED,"8249 Eagle Landing Pkwy, Chilliwack, BC V2P 0E2, Canada",Ejc4MjQ5IEVhZ2xlIExhbmRpbmcgUGt3eSwgQ2hpbGxpd2FjaywgQkMgVjJQIDBFMiwgQ2FuYWRhIhsSGQoUChIJQZV831s_hFQRXRYeUmu0INcQuUA,"8249 EAGLE LANDING PARKWAY,Chilliwack,BC,Canada,V2R0P9",49.1527571,-121.9781437,1,V2P 0E2,OK,street_address
565,ROOFTOP,"825 Rue Saint-Laurent Ouest, Longueuil, QC J4K 2V1, Canada",ChIJRd5RbmsbyUwR9oM7Zk4maY4,"825 rue Saint-Laurent Ouest,Longueuil,QC,Canada,J4K2V1",45.528629,-73.5154914,1,J4K 2V1,OK,premise
566,ROOFTOP,"825 Rue Saint-Laurent Ouest, Longueuil, QC J4K 2V1, Canada",ChIJRd5RbmsbyUwR9oM7Zk4maY4,"825 Rue St-Laurent Ouest,Longueuil,QC,Canada,J4K2V1",45.528629,-73.5154914,1,J4K 2V1,OK,premise
567,ROOFTOP,"8330 82 Ave NW, Edmonton, AB T6C 4E3, Canada",ChIJsRbqAXkioFMRes5lhTaSCpY,"8330 82 Avenue NW,Edmonton,AB,Canada,T6C4E3",53.51914050000001,-113.4566924,1,T6C 4E3,OK,street_address
568,ROOFTOP,"8330 Macleod Trail, Calgary, AB T2H 3A1, Canada",ChIJ5SxTNB9xcVMRZW37HXQ2DcA,"8330 MACLEOD TRAIL S.E.,Calgary,AB,Canada,T2H2V2",50.97855389999999,-114.0700747,1,T2H 3A1,OK,street_address
569,ROOFTOP,"84 Lynden Rd, Brantford, ON N3R 6B8, Canada",ChIJz-5mHbBlLIgRwGFqQIVnxSg,"84 Lynden Rd,Brantford,ON,Canada,N3R 8B8 ",43.1727007,-80.24245619999999,1,N3R 6B8,OK,premise
570,ROOFTOP,"85 Ellesmere Rd, Scarborough, ON M1R 4C1, Canada",ChIJ41VtI23S1IkRtZcgJQTr7M0,"85 Ellesmere Road,Scarborough,ON,Canada,M1R4B8",43.7574406,-79.31254849999999,1,M1R 4C1,OK,street_address
571,RANGE_INTERPOLATED,"850 Rue Hains, Drummondville, QC J2C 0A9, Canada",EjA4NTAgUnVlIEhhaW5zLCBEcnVtbW9uZHZpbGxlLCBRQyBKMkMgMEE5LCBDYW5hZGEiGxIZChQKEgkdGX5ctRPITBGso5HTnovNkxDSBg,"850 RUE HAINS,Drummondville,QC,Canada,J2C5N9",45.90041129999999,-72.52096,1,J2C 0A9,OK,street_address
572,RANGE_INTERPOLATED,"8585 Boulevard Lacroix, Saint-Georges, QC G5Y 2B5, Canada",Ejk4NTg1IEJvdWxldmFyZCBMYWNyb2l4LCBTYWludC1HZW9yZ2VzLCBRQyBHNVkgMkI1LCBDYW5hZGEiGxIZChQKEgmBNEQeor-5TBFm6kk0U_PcbxCJQw,"8585 boul. Lacroix,Saint-Georges,QC,Canada,G5Y5L6",46.1316822,-70.6989111,1,G5Y 2B5,OK,street_address
573,ROOFTOP,"86 Young St, Alliston, ON L9R 1P8, Canada",ChIJ7eSwZlruKogRUlNpeeRgtvU,"86 Young Street,Alliston,ON,Canada,L9R1P8",44.1491802,-79.8824454,1,L9R 1P8,OK,premise
574,RANGE_INTERPOLATED,"8682 York Regional Rd 27, Woodbridge, ON L4L 1A5, Canada",Ejg4NjgyIFlvcmsgUmVnaW9uYWwgUmQgMjcsIFdvb2RicmlkZ2UsIE9OIEw0TCAxQTUsIENhbmFkYSIbEhkKFAoSCV-682DAJCuIEZE8S53cowBAEOpD,"8682 Highway 27,Vaughan,ON,Canada,L4H0B2",43.7928966,-79.6265315,1,L4L 1A5,OK,street_address
575,ROOFTOP,"870 Montée des Pionniers, Terrebonne, QC J6V 1N9, Canada",ChIJp2_n-OrmyEwRE3ey5LabyBg,"870 Montee Des Pionniers,Lachenaie,QC,Canada,J6V1N9",45.7218345,-73.50643579999999,1,J6V 1N9,OK,premise
576,GEOMETRIC_CENTER,"875 Highland Rd W, Kitchener, ON N2N 2Y2, Canada",ChIJJ0snJMn1K4gRL3rNWUvXz3U,"875 Highland Rd W,Kitchener,ON,Canada,N2N 2Y2",43.4295865,-80.52648099999999,1,N2N 2Y2,OK,premise
577,ROOFTOP,"1350 Spring St NW #1, Atlanta, GA 30309, USA",ChIJz4_nc1oE9YgRxihstPqFSoM,,33.791638,-84.389488,1,30309,OK,"bar,establishment,food,point_of_interest,restaurant"
578,ROOFTOP,"8882 170 St NW, Edmonton, AB T5T 4M2, Canada",ChIJif7LSFcgoFMR13Bj3IjzVhw,"8882 170 Street NW,Edmonton,AB,Canada,T5T4M2",53.5224397,-113.6218712,2,T5T 4M2,OK,street_address
579,ROOFTOP,"8888 Country Hills Blvd NW, Calgary, AB T3G 5T4, Canada",ChIJv_pV71NocVMRNo0ZehjnNmU,"8888 Country Hills Blvd,Calgary,AB,Canada,T3G5T4",51.1527865,-114.2149493,1,T3G 5T4,OK,street_address
580,ROOFTOP,"8945 Granville St, Port Hardy, BC V0N 2P0, Canada",ChIJrSz0GS18ZFQRVIBGD2KxF7M,"8945 Granville St,Port Hardy,BC,Canada,V0N2P0",50.7200238,-127.4986133,1,V0N 2P0,OK,street_address
581,ROOFTOP,"90 Rue Simonds N, Granby, QC J2G 7Z5, Canada",ChIJ18Qkx5HOyUwRaOuxrn6UL3g,"90 Rue Simond Nord,Granby,QC,Canada,J2J2L1",45.4183075,-72.75520999999999,1,J2G 7Z5,OK,premise
582,ROOFTOP,"90 Weston Rd, Toronto, ON M6N 5H4, Canada",ChIJqY5ueR00K4gR-BC2reBqxgQ,"90 Weston Road,Toronto,ON,Canada,M6N0A3",43.6741727,-79.4698733,1,M6N 5H4,OK,premise
583,ROOFTOP,"900 Boulevard Grignon, Saint-Jérôme, QC J7Y 3S7, Canada",ChIJ71Bppowsz0wRiACZfgeOonY,"900 Boulevard Grignon,St-Jerome,QC,Canada,J7Y3S7",45.79400709999999,-74.01787929999999,1,J7Y 3S7,OK,premise
584,ROOFTOP,"900 Dufferin St, Toronto, ON M6H 4A9, Canada",ChIJTZ6vw1o0K4gR98XMJcvmMvM,"900 DUFFERIN ST,Toronto,ON,Canada,M6H4A9",43.6562242,-79.43557729999999,1,M6H 4A9,OK,premise
585,ROOFTOP,"900 Gibsons Way, Gibsons, BC V0N 1V8, Canada",ChIJZ7RHArc_hlQRAwNto6PxG5s,"900 GIBSONS WAY,GIBSONS,BC,Canada,V0N1V7",49.4080203,-123.5191253,1,V0N 1V8,OK,premise
586,ROOFTOP,"900 Maple Ave, Burlington, ON L7S 2J8, Canada",ChIJpSYKvw-eLIgRu60K6NZDdVs,"900 Maple Ave.,Burlington,ON,Canada,L7S2J8",43.3244847,-79.8188186,1,L7S 2J8,OK,premise
587,RANGE_INTERPOLATED,"901 64 Ave NE, Calgary, AB T2E, Canada",EiI5MDEgNjQgQXZlIE5FLCBDYWxnYXJ5LCBBQiwgQ2FuYWRhIhsSGQoUChIJ40b1k7RlcVMRGIhOdR8ZfHoQhQc,"901 64th Ave NE,Calgary,AB,Canada,T2E7P4",51.1105318,-114.0441926,1,T2E,OK,street_address
588,ROOFTOP,"9025 Airport Rd, Brampton, ON L6S 0B8, Canada",ChIJV6XKqao9K4gRlurpsKj5EkU,"9025 Airport Rd.,Brampton,ON,Canada,L6S0B8",43.7444236,-79.69559249999999,1,L6S 0B8,OK,premise
589,ROOFTOP,"9151 Bridgeport Rd, Richmond, BC V6X 3L9, Canada",ChIJWc2NzuF0hlQRTpIJ_tqrRSU,"9151 Bridgeport Road,RICHMOND,BC,Canada,V3K6V3",49.192965,-123.1216121,1,V6X 3L9,OK,street_address
590,ROOFTOP,"920 Boulevard Maloney O, Gatineau, QC J8T 3R6, Canada",ChIJ-UIJNj4bzkwRxgVVBQsdjDs,"920 MALONEY BLVD. WEST,Gatineau,QC,Canada,J8T 3R6",45.4779159,-75.6903002,1,J8T 3R6,OK,premise
591,ROOFTOP,"9200 Bathurst St, Thornhill, ON L4J 8W1, Canada",ChIJb-42ROUrK4gRU7l_8aCyHVg,"9200 Bathurst St,Thornhill,ON,Canada,L4J8W1",43.8465781,-79.46005009999999,1,L4J 8W1,OK,street_address
592,ROOFTOP,"9200 Weston Rd, Woodbridge, ON L4H 2P8, Canada",ChIJRx6GTV4vK4gRe56I1GdVLa0,"9200 Weston Road,Woodbridge,ON,Canada,L4H2P8",43.8271162,-79.5568785,1,L4H 2P8,OK,street_address
593,RANGE_INTERPOLATED,"9226 ON-93, Midland, ON L4R 4K4, Canada",Eic5MjI2IE9OLTkzLCBNaWRsYW5kLCBPTiBMNFIgNEs0LCBDYW5hZGEiGxIZChQKEgnZDLqWjdoqTRHUGvz6_O1OKBCKSA,"9226 Highway 93,Midland,ON,Canada,L4R4K4",44.71739090000001,-79.8971375,1,L4R 4K4,OK,street_address
594,ROOFTOP,"9256 Commercial St, New Minas, NS B4N 3E9, Canada",ChIJ_yHFTB1UWEsR9BuEVN_3K4U,"9256 Commercial St,New Minas,NS,Canada,B4N4A9",45.0665531,-64.4417239,1,B4N 3E9,OK,premise
595,ROOFTOP,"930 Erb St W, Waterloo, ON N2J 3Z4, Canada",ChIJTa2TPvn2K4gRrp_JDII7brk,"930 Erb St W,Waterloo,ON,Canada,N2J 3Z4",43.4440775,-80.5815667,1,N2J 3Z4,OK,street_address
596,ROOFTOP,"935 Marine Dr, North Vancouver, BC V7P 1S3, Canada",ChIJfRnZPM1xhlQR_Wmw2wj_Xxc,"935 Marine Dr,North Vancouver,BC,Canada,V7P1S3",49.3217529,-123.1001628,1,V7P 1S3,OK,street_address
597,ROOFTOP,"9350 Yonge St, Richmond Hill, ON L4C 5G2, Canada",ChIJZwU4-5crK4gRoJvRKe3_390,"9350 Yonge Street,Toronto,ON,Canada,L4C 5G2",43.8554288,-79.43719399999999,1,L4C 5G2,OK,"doctor,establishment,health,point_of_interest"
598,ROOFTOP,"9380 Boulevard Leduc, Brossard, QC J4Y 0B3, Canada",ChIJg7yo5E4PyUwRJFw7PtaW8RI,"9380 Boulevard Leduc,Brossard,QC,Canada,J4Y0B3",45.4443924,-73.4353725,1,J4Y 0B3,OK,premise
599,ROOFTOP,"945 Gardiners Rd, Kingston, ON K7M 7H4, Canada",ChIJhaVhtkys0kwR1PkprLtxJ-s,"945 Gardiners Rd,Kingston,ON,Canada,K7M7H4",44.2563363,-76.57217100000001,1,K7M 7H4,OK,premise
600,ROOFTOP,"9499 137 Ave NW, Edmonton, AB T5E 5R8, Canada",ChIJe--Kt2MjoFMRQaghANpjMjE,"9499 137 Ave NW,Edmonton,AB,Canada,T5E5R8",53.5976231,-113.4896815,1,T5E 5R8,OK,subpremise
601,ROOFTOP,"95 First St, Orangeville, ON L9W 2E8, Canada",ChIJ_ZYYWYAAK4gRBRKtaszVqc0,"95 FIRST STREET,Orangeville,ON,Canada,L9W2E8",43.9300055,-80.0964946,1,L9W 2E8,OK,street_address
602,ROOFTOP,"9600 93 Ave, Fort St John, BC V1J 5Z2, Canada",ChIJHduQ3pY2klMR_gIGG45C8oI,"9600 93rd Ave.,Fort St. John,BC,Canada,V1J5Z2",56.23670869999999,-120.8427866,1,V1J 5Z2,OK,premise
603,ROOFTOP,"963 Central Ave, Greenwood, NS B0P 1N0, Canada",ChIJhbTIvYhqWEsRvvnYdMsz6xA,"963 Central Avenue,Greenwood,NS,Canada,B0P1N0",44.968618,-64.92728699999999,1,B0P 1N0,OK,street_address
604,ROOFTOP,"9713 Hardin St, Fort McMurray, AB T9H 4K3, Canada",ChIJO9ZudbQIsFMRpODO8o3AL44,"9713 Hardin St.,Fort McMurray,AB,Canada,T9H1L2",56.7253001,-111.3789122,1,T9H 4K3,OK,street_address
605,ROOFTOP,"9817 116 St, Grande Prairie, AB T8W 0C7, Canada",ChIJhYNGSHuRkFMR_FlFXhYkODg,"9817 116 STREET,Grande Prairie,AB,Canada,T8W0C7",55.1685832,-118.8487815,1,T8W 0C7,OK,premise
606,ROOFTOP,"106, 9855 Austin Ave, Burnaby, BC V3J 1N5, Canada",ChIJ1fEKuTt4hlQRT49RaCLVrTQ,"9855 Austin Ave,Burnaby,BC,Canada,V3J1N4",49.2502266,-122.8958023,1,V3J 1N5,OK,premise
607,ROOFTOP,"99 Douglastown Blvd, Miramichi, NB E1V 7V3, Canada",ChIJVd0jBhH1oUwRxQKVDV6UcuA,"99 Douglastown Blvd,Miramichi,NB,Canada,E1V7T9",47.0336688,-65.490921,1,E1V 7V3,OK,premise
608,ROOFTOP,"99 Heritage Gate SE, Calgary, AB T2H 2L4, Canada",ChIJicw1gO5wcVMR77xlVshNDHo,"99 Heritage Gate Se,Calgary,AB,Canada,T2H3A7",50.9889287,-114.0457316,1,T2H 2L4,OK,street_address
609,ROOFTOP,"999 Upper Wentworth St, Hamilton, ON L9A 4X5, Canada",ChIJR6yovE-aLIgRfd55o-Wiogo,"999 Upper Wentworth,Hamilton,ON,Canada,L9A4X5",43.2176239,-79.86153329999999,1,L9A 4X5,OK,premise
610,ROOFTOP,"1200 Brant St #1, Burlington, ON L7P, Canada",EigxLCAxMjAwIEJyYW50IFN0LCBCdXJsaW5ndG9uLCBPTiwgQ2FuYWRhIh0aGwoWChQKEgmR_Ar8-2EriBG9Q08O0KRugxIBMQ,"UNIT 1 - 1200 BRANT STREET,Burlington,ON,Canada,L7P5C6",43.3417962,-79.82532119999999,1,L7P,OK,subpremise
